[
  {
    "Station": "Abbey Road",
    "OS X": 539081,
    "OS Y": 183352,
    "Latitude": 51.5319519867171,
    "Longitude": 0.00372337109717115,
    "Zone": 3,
    "Postcode": "E15 3NB"
  },
  {
    "Station": "Acton",
    "OS X": 520296,
    "OS Y": 181196,
    "Latitude": 51.5168869310483,
    "Longitude": -0.267689952184077,
    "Zone": 3,
    "Postcode": "W3 0BP"
  },
  {
    "Station": "Acton Central",
    "OS X": 520613,
    "OS Y": 180299,
    "Latitude": 51.5087577801896,
    "Longitude": -0.263430199363473,
    "Zone": 2,
    "Postcode": "W3 6BD"
  },
  {
    "Station": "Acton Town",
    "OS X": 519457,
    "OS Y": 179639,
    "Latitude": 51.5030714429635,
    "Longitude": -0.28030270140601,
    "Zone": 3,
    "Postcode": "W3 8HN"
  },
  {
    "Station": "Aldgate",
    "OS X": 533629,
    "OS Y": 181246,
    "Latitude": 51.5143423787415,
    "Longitude": -0.0756269126501567,
    "Zone": 1,
    "Postcode": "EC3N 1AH"
  },
  {
    "Station": "Aldgate East",
    "OS X": 533809,
    "OS Y": 181333,
    "Latitude": 51.5150816226404,
    "Longitude": -0.0730014627258136,
    "Zone": 1,
    "Postcode": "E1 7PT"
  },
  {
    "Station": "Alexandra Palace",
    "OS X": 530300,
    "OS Y": 190498,
    "Latitude": 51.5982628226497,
    "Longitude": -0.120148972194536,
    "Zone": 3,
    "Postcode": "N22 7ST"
  },
  {
    "Station": "All Saints",
    "OS X": 538012,
    "OS Y": 180933,
    "Latitude": 51.5104769244406,
    "Longitude": -0.0126248853684833,
    "Zone": 2,
    "Postcode": "E14 0EH"
  },
  {
    "Station": "Angel",
    "OS X": 531497,
    "OS Y": 183263,
    "Latitude": 51.5329680156891,
    "Longitude": -0.105581448946398,
    "Zone": 1,
    "Postcode": "N1 8XB"
  },
  {
    "Station": "Arsenal",
    "OS X": 531429,
    "OS Y": 186107,
    "Latitude": 51.5585413757193,
    "Longitude": -0.105499933602789,
    "Zone": 2,
    "Postcode": "N5 1LP"
  },
  {
    "Station": "Baker Street",
    "OS X": 527965,
    "OS Y": 182078,
    "Latitude": 51.5231296204391,
    "Longitude": -0.15690419441262,
    "Zone": 1,
    "Postcode": "NW1 5LA"
  },
  {
    "Station": "Balham",
    "OS X": 528482,
    "OS Y": 173195,
    "Latitude": 51.4431825620326,
    "Longitude": -0.152685163343656,
    "Zone": 3,
    "Postcode": "SW12 9SG"
  },
  {
    "Station": "Bank",
    "OS X": 532704,
    "OS Y": 181111,
    "Latitude": 51.513347062296,
    "Longitude": -0.0890001239496697,
    "Zone": 1,
    "Postcode": "EC3V 3LA"
  },
  {
    "Station": "Barbican",
    "OS X": 532079,
    "OS Y": 181859,
    "Latitude": 51.5202152835411,
    "Longitude": -0.0977215786403087,
    "Zone": 1,
    "Postcode": "EC1A 4JA"
  },
  {
    "Station": "Barnes",
    "OS X": 522209,
    "OS Y": 175705,
    "Latitude": 51.4671277727085,
    "Longitude": -0.242033062031602,
    "Zone": 3,
    "Postcode": "SW13 0LW"
  },
  {
    "Station": "Barnes Bridge",
    "OS X": 521478,
    "OS Y": 176255,
    "Latitude": 51.4722280526837,
    "Longitude": -0.252362617035817,
    "Zone": 3,
    "Postcode": "SW13 0NR"
  },
  {
    "Station": "Barons Court",
    "OS X": 524133,
    "OS Y": 178322,
    "Latitude": 51.4902286819759,
    "Longitude": -0.213430145064537,
    "Zone": 2,
    "Postcode": "W14 9DP"
  },
  {
    "Station": "Battersea Park",
    "OS X": 528703,
    "OS Y": 176999,
    "Latitude": 51.477318323121,
    "Longitude": -0.148123761663195,
    "Zone": 2,
    "Postcode": "SW8 4NB"
  },
  {
    "Station": "Bayswater",
    "OS X": 525845,
    "OS Y": 180799,
    "Latitude": 51.5121112883667,
    "Longitude": -0.187901573927441,
    "Zone": 1,
    "Postcode": "W2 4QH"
  },
  {
    "Station": "Beckton",
    "OS X": 543145,
    "OS Y": 181509,
    "Latitude": 51.514376629554,
    "Longitude": 0.0615252969323279,
    "Zone": 3,
    "Postcode": "E6 5NT"
  },
  {
    "Station": "Beckton Park",
    "OS X": 542697,
    "OS Y": 180887,
    "Latitude": 51.5089007937122,
    "Longitude": 0.0548219388642393,
    "Zone": 3,
    "Postcode": "E6 5NE"
  },
  {
    "Station": "Bellingham",
    "OS X": 537702,
    "OS Y": 172399,
    "Latitude": 51.4338648934564,
    "Longitude": -0.0204117703162584,
    "Zone": 3,
    "Postcode": "SE6 3BT"
  },
  {
    "Station": "Belsize Park",
    "OS X": 527399,
    "OS Y": 185075,
    "Latitude": 51.5501908776835,
    "Longitude": -0.163974492584094,
    "Zone": 2,
    "Postcode": "NW3 2AL"
  },
  {
    "Station": "Bermondsey",
    "OS X": 534461,
    "OS Y": 179445,
    "Latitude": 51.4979607802573,
    "Longitude": -0.0643300900477039,
    "Zone": 2,
    "Postcode": "SE16 4RX"
  },
  {
    "Station": "Bethnal Green",
    "OS X": 534995,
    "OS Y": 182712,
    "Latitude": 51.527191741205,
    "Longitude": -0.0553921116245381,
    "Zone": 2,
    "Postcode": "E2 0ET"
  },
  {
    "Station": "Bethnal Green Rail",
    "OS X": 534683,
    "OS Y": 182380,
    "Latitude": 51.5242827393666,
    "Longitude": -0.0600137426043104,
    "Zone": 2,
    "Postcode": "E2 6JL"
  },
  {
    "Station": "Blackfriars",
    "OS X": 531738,
    "OS Y": 180890,
    "Latitude": 51.5115869277802,
    "Longitude": -0.102995385235787,
    "Zone": 1,
    "Postcode": "EC4V 4DD"
  },
  {
    "Station": "Blackheath",
    "OS X": 539604,
    "OS Y": 175961,
    "Latitude": 51.4654080109124,
    "Longitude": 0.00833659470766039,
    "Zone": 3,
    "Postcode": "SE3 9LE"
  },
  {
    "Station": "Blackhorse Road",
    "OS X": 535914,
    "OS Y": 189256,
    "Latitude": 51.5857766270677,
    "Longitude": -0.0396257115532134,
    "Zone": 3,
    "Postcode": "E17 6JJ"
  },
  {
    "Station": "Blackwall",
    "OS X": 538394,
    "OS Y": 180649,
    "Latitude": 51.5078315405334,
    "Longitude": -0.00723516588004438,
    "Zone": 2,
    "Postcode": "E14 9QB"
  },
  {
    "Station": "Bond Street",
    "OS X": 528497,
    "OS Y": 181053,
    "Latitude": 51.5137975247838,
    "Longitude": -0.149613609827946,
    "Zone": 1,
    "Postcode": "W1C 2HU"
  },
  {
    "Station": "Borough",
    "OS X": 532379,
    "OS Y": 179734,
    "Latitude": 51.501048869407,
    "Longitude": -0.0941973231491299,
    "Zone": 1,
    "Postcode": "SE1 1JX"
  },
  {
    "Station": "Boston Manor",
    "OS X": 516391,
    "OS Y": 178755,
    "Latitude": 51.4957655352965,
    "Longitude": -0.324747188765788,
    "Zone": 4,
    "Postcode": "TW8 9LQ"
  },
  {
    "Station": "Bow Church",
    "OS X": 537414,
    "OS Y": 182824,
    "Latitude": 51.527615203652,
    "Longitude": -0.0204998991998037,
    "Zone": 2,
    "Postcode": "E3 3AA"
  },
  {
    "Station": "Bow Road",
    "OS X": 537148,
    "OS Y": 182753,
    "Latitude": 51.5270418067574,
    "Longitude": -0.0243595906651091,
    "Zone": 2,
    "Postcode": "E3 4DH"
  },
  {
    "Station": "Brent Cross",
    "OS X": 523905,
    "OS Y": 187927,
    "Latitude": 51.5765992150606,
    "Longitude": -0.213335840510563,
    "Zone": 3,
    "Postcode": "NW11 9UA"
  },
  {
    "Station": "Brentford",
    "OS X": 517462,
    "OS Y": 177864,
    "Latitude": 51.4875363071287,
    "Longitude": -0.309622536694703,
    "Zone": 4,
    "Postcode": "TW8 9LF"
  },
  {
    "Station": "Brixton",
    "OS X": 531076,
    "OS Y": 175437,
    "Latitude": 51.4627368020741,
    "Longitude": -0.114552097586618,
    "Zone": 2,
    "Postcode": "SW9 8HE"
  },
  {
    "Station": "Brockley",
    "OS X": 536405,
    "OS Y": 175801,
    "Latitude": 51.4647496625814,
    "Longitude": -0.0377482505476242,
    "Zone": 2,
    "Postcode": "SE4 2RW"
  },
  {
    "Station": "Bromley North",
    "OS X": 540395,
    "OS Y": 169699,
    "Latitude": 51.4089423111557,
    "Longitude": 0.0172354519396871,
    "Zone": 4,
    "Postcode": "BR1 3NN"
  },
  {
    "Station": "Brondesbury",
    "OS X": 524718,
    "OS Y": 184460,
    "Latitude": 51.5452623623785,
    "Longitude": -0.202838485732291,
    "Zone": 2,
    "Postcode": "NW6 7QL"
  },
  {
    "Station": "Brondesbury Park",
    "OS X": 524202,
    "OS Y": 183898,
    "Latitude": 51.5403253657546,
    "Longitude": -0.210473946681613,
    "Zone": 2,
    "Postcode": "NW6 6RP"
  },
  {
    "Station": "Bruce Grove",
    "OS X": 533758,
    "OS Y": 190115,
    "Latitude": 51.5940112462336,
    "Longitude": -0.0703989896457386,
    "Zone": 3,
    "Postcode": "N17 8AD"
  },
  {
    "Station": "Burnt Oak",
    "OS X": 520303,
    "OS Y": 190728,
    "Latitude": 51.6025519118101,
    "Longitude": -0.264330712266273,
    "Zone": 4,
    "Postcode": "HA8 0LA"
  },
  {
    "Station": "Caledonian Road",
    "OS X": 530568,
    "OS Y": 184899,
    "Latitude": 51.5478854410275,
    "Longitude": -0.118360861873635,
    "Zone": 2,
    "Postcode": "N7 9BA"
  },
  {
    "Station": "Caledonian Road and Barnsbury",
    "OS X": 530800,
    "OS Y": 184393,
    "Latitude": 51.5432845754194,
    "Longitude": -0.1152048567149,
    "Zone": 2,
    "Postcode": "N1 0SL"
  },
  {
    "Station": "Cambridge Heath",
    "OS X": 534855,
    "OS Y": 183250,
    "Latitude": 51.5320597642081,
    "Longitude": -0.0572032008235444,
    "Zone": 2,
    "Postcode": "E2 7NA"
  },
  {
    "Station": "Camden Road",
    "OS X": 529140,
    "OS Y": 184191,
    "Latitude": 51.5418512342036,
    "Longitude": -0.139203112522292,
    "Zone": 2,
    "Postcode": "NW1 9LQ"
  },
  {
    "Station": "Camden Town",
    "OS X": 528920,
    "OS Y": 183976,
    "Latitude": 51.539969352277,
    "Longitude": -0.142452381051009,
    "Zone": 2,
    "Postcode": "NW1 8NH"
  },
  {
    "Station": "Canada Water",
    "OS X": 535399,
    "OS Y": 179493,
    "Latitude": 51.4981684118441,
    "Longitude": -0.0508071209954049,
    "Zone": 2,
    "Postcode": "SE16 7BB"
  },
  {
    "Station": "Canary Wharf",
    "OS X": 537558,
    "OS Y": 180153,
    "Latitude": 51.5035784043688,
    "Longitude": -0.0194668401596637,
    "Zone": 2,
    "Postcode": "E14 4QS"
  },
  {
    "Station": "Canning Town",
    "OS X": 539454,
    "OS Y": 181350,
    "Latitude": 51.513870287242,
    "Longitude": 0.00830563274393741,
    "Zone": 3,
    "Postcode": "E16 1DQ"
  },
  {
    "Station": "Cannon Street",
    "OS X": 532623,
    "OS Y": 180888,
    "Latitude": 51.5113620889071,
    "Longitude": -0.0902505268833338,
    "Zone": 1,
    "Postcode": "EC4N 6AP"
  },
  {
    "Station": "Canonbury",
    "OS X": 532355,
    "OS Y": 184979,
    "Latitude": 51.548188385177,
    "Longitude": -0.0925741958211209,
    "Zone": 2,
    "Postcode": "N1 2PG"
  },
  {
    "Station": "Castle Bar Park",
    "OS X": 515853,
    "OS Y": 181770,
    "Latitude": 51.5229736652832,
    "Longitude": -0.331504076340438,
    "Zone": 4,
    "Postcode": "W7 1AY"
  },
  {
    "Station": "Caterham",
    "OS X": 534099,
    "OS Y": 155422,
    "Latitude": 51.2821628226068,
    "Longitude": -0.0786072985674413,
    "Zone": 6,
    "Postcode": "CR3 6LB"
  },
  {
    "Station": "Catford",
    "OS X": 537245,
    "OS Y": 173544,
    "Latitude": 51.4442649120205,
    "Longitude": -0.0265384985954206,
    "Zone": 3,
    "Postcode": "SE6 4XT"
  },
  {
    "Station": "Catford Bridge",
    "OS X": 537363,
    "OS Y": 173595,
    "Latitude": 51.4446946250561,
    "Longitude": -0.0248218759437963,
    "Zone": 3,
    "Postcode": "SE6 4RE"
  },
  {
    "Station": "Chadwell Heath",
    "OS X": 547646,
    "OS Y": 187611,
    "Latitude": 51.5680468782263,
    "Longitude": 0.128901111583164,
    "Zone": 5,
    "Postcode": "RM6 4BE"
  },
  {
    "Station": "Chafford Hundred",
    "OS X": 558922,
    "OS Y": 178770,
    "Latitude": 51.4855544959176,
    "Longitude": 0.28747570068245,
    "Zone": 7,
    "Postcode": "RM16 6QQ"
  },
  {
    "Station": "Chalfont and Latimer",
    "OS X": 499610,
    "OS Y": 197550,
    "Latitude": 51.6679074791995,
    "Longitude": -0.56106777731917,
    "Zone": 8,
    "Postcode": "HP7 9PR"
  },
  {
    "Station": "Chalk Farm",
    "OS X": 528126,
    "OS Y": 184421,
    "Latitude": 51.5441490864876,
    "Longitude": -0.153733070875137,
    "Zone": 2,
    "Postcode": "NW3 2BP"
  },
  {
    "Station": "Chancery Lane",
    "OS X": 531096,
    "OS Y": 181642,
    "Latitude": 51.5184940165847,
    "Longitude": -0.111962027485689,
    "Zone": 1,
    "Postcode": "WC1V 6DR"
  },
  {
    "Station": "Charing Cross",
    "OS X": 530234,
    "OS Y": 180492,
    "Latitude": 51.5083586300048,
    "Longitude": -0.124802938133095,
    "Zone": 1,
    "Postcode": "WC2N 5HS"
  },
  {
    "Station": "Charlton",
    "OS X": 541108,
    "OS Y": 178387,
    "Latitude": 51.4868349882394,
    "Longitude": 0.0309416448024295,
    "Zone": 3,
    "Postcode": "SE7 7AB"
  },
  {
    "Station": "Chigwell",
    "OS X": 543835,
    "OS Y": 193045,
    "Latitude": 51.6178578723834,
    "Longitude": 0.0761792150052964,
    "Zone": 4,
    "Postcode": "IG7 6NT"
  },
  {
    "Station": "Chiswick",
    "OS X": 520438,
    "OS Y": 177182,
    "Latitude": 51.4807814945228,
    "Longitude": -0.267013321856982,
    "Zone": 3,
    "Postcode": "W4 2QE"
  },
  {
    "Station": "Chiswick Park",
    "OS X": 520352,
    "OS Y": 178692,
    "Latitude": 51.4943707139869,
    "Longitude": -0.26773692216361,
    "Zone": 3,
    "Postcode": "W4 5NE"
  },
  {
    "Station": "Chorleywood",
    "OS X": 502596,
    "OS Y": 196092,
    "Latitude": 51.6542659264231,
    "Longitude": -0.518333926536853,
    "Zone": 7,
    "Postcode": "WD3 5ND"
  },
  {
    "Station": "Church Street",
    "OS X": 532041,
    "OS Y": 165555,
    "Latitude": 51.373706561893,
    "Longitude": -0.104346828895711,
    "Zone": "3,4,5,6",
    "Postcode": "CR0 1RN"
  },
  {
    "Station": "City Thameslink",
    "OS X": 531688,
    "OS Y": 181150,
    "Latitude": 51.5139350677627,
    "Longitude": -0.103618449171561,
    "Zone": 1,
    "Postcode": "EC4M 7JH"
  },
  {
    "Station": "Clapham Common",
    "OS X": 529428,
    "OS Y": 175291,
    "Latitude": 51.4618036698523,
    "Longitude": -0.138314902494851,
    "Zone": 2,
    "Postcode": "SW4 7AJ"
  },
  {
    "Station": "Clapham High Street",
    "OS X": 529824,
    "OS Y": 175709,
    "Latitude": 51.4654695136715,
    "Longitude": -0.132464502577436,
    "Zone": 2,
    "Postcode": "SW4 6DQ"
  },
  {
    "Station": "Clapham Junction",
    "OS X": 527198,
    "OS Y": 175520,
    "Latitude": 51.4643667842754,
    "Longitude": -0.170315002226266,
    "Zone": 2,
    "Postcode": "SW11 2QP"
  },
  {
    "Station": "Clapham North",
    "OS X": 530003,
    "OS Y": 175652,
    "Latitude": 51.4649162149925,
    "Longitude": -0.129910062890382,
    "Zone": 2,
    "Postcode": "SW4 7TS"
  },
  {
    "Station": "Clapham South",
    "OS X": 528782,
    "OS Y": 174259,
    "Latitude": 51.4526764891153,
    "Longitude": -0.147984069598376,
    "Zone": "2,3",
    "Postcode": "SW12 9DU"
  },
  {
    "Station": "Clapton",
    "OS X": 534748,
    "OS Y": 186531,
    "Latitude": 51.5615690879152,
    "Longitude": -0.0574894584530427,
    "Zone": 2,
    "Postcode": "E5 9JP"
  },
  {
    "Station": "Clock House",
    "OS X": 536367,
    "OS Y": 169545,
    "Latitude": 51.4085405609855,
    "Longitude": -0.0407020925904992,
    "Zone": 4,
    "Postcode": "BR3 4PR"
  },
  {
    "Station": "Cobham and Stoke D'Abernon",
    "OS X": 512362,
    "OS Y": 158925,
    "Latitude": 51.3183471920661,
    "Longitude": -0.389036345623171,
    "Zone": 0,
    "Postcode": "KT11 3BW"
  },
  {
    "Station": "Cockfosters",
    "OS X": 528087,
    "OS Y": 196424,
    "Latitude": 51.6520244788699,
    "Longitude": -0.149916711073587,
    "Zone": 5,
    "Postcode": "EN4 0DZ"
  },
  {
    "Station": "Colindale",
    "OS X": 521295,
    "OS Y": 189937,
    "Latitude": 51.5952305160491,
    "Longitude": -0.250287543714841,
    "Zone": 4,
    "Postcode": "NW9 5HR"
  },
  {
    "Station": "Colliers Wood",
    "OS X": 526831,
    "OS Y": 170436,
    "Latitude": 51.4187591877618,
    "Longitude": -0.177415099875595,
    "Zone": 3,
    "Postcode": "SW19 2HR"
  },
  {
    "Station": "Coombe Lane",
    "OS X": 535201,
    "OS Y": 164089,
    "Latitude": 51.3597893094901,
    "Longitude": -0.0595315713236646,
    "Zone": "3,4,5,6",
    "Postcode": "CR0 5RF"
  },
  {
    "Station": "Coulsdon South",
    "OS X": 529869,
    "OS Y": 159056,
    "Latitude": 51.3158009441707,
    "Longitude": -0.137903090283073,
    "Zone": 6,
    "Postcode": "CR5 3EA"
  },
  {
    "Station": "Covent Garden",
    "OS X": 530242,
    "OS Y": 180982,
    "Latitude": 51.5127602348582,
    "Longitude": -0.124506894632723,
    "Zone": 1,
    "Postcode": "WC2E 9JT"
  },
  {
    "Station": "Crayford",
    "OS X": 551479,
    "OS Y": 174424,
    "Latitude": 51.448546757006,
    "Longitude": 0.17850271627804,
    "Zone": 6,
    "Postcode": "DA1 3PY"
  },
  {
    "Station": "Crews Hill",
    "OS X": 530973,
    "OS Y": 200109,
    "Latitude": 51.6844746109419,
    "Longitude": -0.10684410075744,
    "Zone": 6,
    "Postcode": "EN2 8AY"
  },
  {
    "Station": "Cricklewood",
    "OS X": 524009,
    "OS Y": 185907,
    "Latitude": 51.5584226684923,
    "Longitude": -0.212547934101459,
    "Zone": 3,
    "Postcode": "NW2 1HL"
  },
  {
    "Station": "Crofton Park",
    "OS X": 536517,
    "OS Y": 174739,
    "Latitude": 51.4551792922913,
    "Longitude": -0.036546581839275,
    "Zone": 3,
    "Postcode": "SE4 2RA"
  },
  {
    "Station": "Crossharbour and London Arena",
    "OS X": 537896,
    "OS Y": 179301,
    "Latitude": 51.4958399792182,
    "Longitude": -0.0149328131018881,
    "Zone": 2,
    "Postcode": "E14 8AD"
  },
  {
    "Station": "Crouch Hill",
    "OS X": 530586,
    "OS Y": 187508,
    "Latitude": 51.5713270975182,
    "Longitude": -0.117133284889727,
    "Zone": 3,
    "Postcode": "N4 4AU"
  },
  {
    "Station": "Croxley",
    "OS X": 507921,
    "OS Y": 195395,
    "Latitude": 51.647005280107,
    "Longitude": -0.441603798252885,
    "Zone": 7,
    "Postcode": "WD3 3DY"
  },
  {
    "Station": "Crystal Palace",
    "OS X": 534120,
    "OS Y": 170557,
    "Latitude": 51.4181703515618,
    "Longitude": -0.0726072327605205,
    "Zone": "3,4",
    "Postcode": "SE19 2AZ"
  },
  {
    "Station": "Custom House",
    "OS X": 540679,
    "OS Y": 180911,
    "Latitude": 51.5096220567499,
    "Longitude": 0.0257725102639474,
    "Zone": 3,
    "Postcode": "E16 3BX"
  },
  {
    "Station": "Cutty Sark for Maritime Greenwich",
    "OS X": 538240,
    "OS Y": 177764,
    "Latitude": 51.481944467916,
    "Longitude": -0.0105818667291609,
    "Zone": 2,
    "Postcode": "SE10 9SW"
  },
  {
    "Station": "Cyprus",
    "OS X": 543324,
    "OS Y": 180863,
    "Latitude": 51.50852658125,
    "Longitude": 0.0638407558302055,
    "Zone": 3,
    "Postcode": "E6 5PH"
  },
  {
    "Station": "Dagenham Dock",
    "OS X": 548900,
    "OS Y": 183000,
    "Latitude": 51.5262871968453,
    "Longitude": 0.145031014043306,
    "Zone": 5,
    "Postcode": "RM9 6RA"
  },
  {
    "Station": "Dagenham East",
    "OS X": 550284,
    "OS Y": 185033,
    "Latitude": 51.5441873390151,
    "Longitude": 0.165833431683368,
    "Zone": 5,
    "Postcode": "RM10 8AA"
  },
  {
    "Station": "Dagenham Heathway",
    "OS X": 549035,
    "OS Y": 184665,
    "Latitude": 51.5412117909547,
    "Longitude": 0.147679720183138,
    "Zone": 5,
    "Postcode": "RM9 5AN"
  },
  {
    "Station": "Dalston Junction",
    "OS X": 533580,
    "OS Y": 184778,
    "Latitude": 51.5460937156521,
    "Longitude": -0.0749942048209628,
    "Zone": 2,
    "Postcode": "E8 3DL"
  },
  {
    "Station": "Dalston Kingsland",
    "OS X": 533487,
    "OS Y": 185062,
    "Latitude": 51.5486678182555,
    "Longitude": -0.0762269219509382,
    "Zone": 2,
    "Postcode": "E8 2JS"
  },
  {
    "Station": "Dartford",
    "OS X": 554233,
    "OS Y": 174379,
    "Latitude": 51.4473996429883,
    "Longitude": 0.218083548338414,
    "Zone": 0,
    "Postcode": "DA1 1BP"
  },
  {
    "Station": "Debden",
    "OS X": 544275,
    "OS Y": 196133,
    "Latitude": 51.645492001721,
    "Longitude": 0.0838014748371958,
    "Zone": 6,
    "Postcode": "IG10 3TG"
  },
  {
    "Station": "Denmark Hill",
    "OS X": 532697,
    "OS Y": 176087,
    "Latitude": 51.4682006393928,
    "Longitude": -0.0909878695789793,
    "Zone": 2,
    "Postcode": "SE5 8BB"
  },
  {
    "Station": "Deptford",
    "OS X": 537165,
    "OS Y": 177395,
    "Latitude": 51.4788900835932,
    "Longitude": -0.0261963195716051,
    "Zone": 2,
    "Postcode": "SE8 3NU"
  },
  {
    "Station": "Deptford Bridge",
    "OS X": 537466,
    "OS Y": 176912,
    "Latitude": 51.474476771881,
    "Longitude": -0.022052428800673,
    "Zone": "2,3",
    "Postcode": "SE10 8BU"
  },
  {
    "Station": "Devons Road",
    "OS X": 537603,
    "OS Y": 182233,
    "Latitude": 51.5222584675869,
    "Longitude": -0.0180077541924364,
    "Zone": 2,
    "Postcode": "E3 3QX"
  },
  {
    "Station": "Dollis Hill",
    "OS X": 522207,
    "OS Y": 185132,
    "Latitude": 51.5518505907144,
    "Longitude": -0.238797761680588,
    "Zone": 3,
    "Postcode": "NW10 5NB"
  },
  {
    "Station": "Drayton Green",
    "OS X": 516002,
    "OS Y": 180998,
    "Latitude": 51.5160046753429,
    "Longitude": -0.329611259707967,
    "Zone": 4,
    "Postcode": "W13 0JX"
  },
  {
    "Station": "Drayton Park",
    "OS X": 531426,
    "OS Y": 185499,
    "Latitude": 51.5530783069535,
    "Longitude": -0.105770199748389,
    "Zone": 2,
    "Postcode": "N5 1NT"
  },
  {
    "Station": "Dundonald Road",
    "OS X": 524741,
    "OS Y": 170233,
    "Latitude": 51.4173981467302,
    "Longitude": -0.207527112702531,
    "Zone": "3,4,5,6",
    "Postcode": "SW19 3QJ"
  },
  {
    "Station": "Ealing Broadway",
    "OS X": 517920,
    "OS Y": 180915,
    "Latitude": 51.5148619748964,
    "Longitude": -0.302010381444888,
    "Zone": 3,
    "Postcode": "W5 2NU"
  },
  {
    "Station": "Ealing Common",
    "OS X": 518963,
    "OS Y": 180426,
    "Latitude": 51.5102486557265,
    "Longitude": -0.287151417905478,
    "Zone": 3,
    "Postcode": "W5 3LD"
  },
  {
    "Station": "Earls Court",
    "OS X": 525457,
    "OS Y": 178480,
    "Latitude": 51.4913566719448,
    "Longitude": -0.194313809287265,
    "Zone": "1,2",
    "Postcode": "SW5 9QA"
  },
  {
    "Station": "Earlsfield",
    "OS X": 526081,
    "OS Y": 173030,
    "Latitude": 51.4422388073847,
    "Longitude": -0.187272688578691,
    "Zone": 3,
    "Postcode": "SW18 4SW"
  },
  {
    "Station": "East Acton",
    "OS X": 521656,
    "OS Y": 181159,
    "Latitude": 51.5162634142689,
    "Longitude": -0.248112224861801,
    "Zone": 2,
    "Postcode": "W12 0BP"
  },
  {
    "Station": "East Croydon",
    "OS X": 532904,
    "OS Y": 165801,
    "Latitude": 51.3757161019257,
    "Longitude": -0.0918634960219951,
    "Zone": 5,
    "Postcode": "CR0 1LF"
  },
  {
    "Station": "East Dulwich",
    "OS X": 533449,
    "OS Y": 175375,
    "Latitude": 51.4616255828228,
    "Longitude": -0.0804365715036241,
    "Zone": 2,
    "Postcode": "SE22 8EF"
  },
  {
    "Station": "East Finchley",
    "OS X": 527242,
    "OS Y": 189204,
    "Latitude": 51.5873325447116,
    "Longitude": -0.164743886020014,
    "Zone": 3,
    "Postcode": "N2 0NW"
  },
  {
    "Station": "East Ham",
    "OS X": 542373,
    "OS Y": 184255,
    "Latitude": 51.5392461649047,
    "Longitude": 0.0515162933203073,
    "Zone": "3,4",
    "Postcode": "E6 2JA"
  },
  {
    "Station": "East India",
    "OS X": 538729,
    "OS Y": 180753,
    "Latitude": 51.5086840062894,
    "Longitude": -0.00237033154909731,
    "Zone": "2,3",
    "Postcode": "E14 9PS"
  },
  {
    "Station": "East Putney",
    "OS X": 524387,
    "OS Y": 174840,
    "Latitude": 51.4588797835326,
    "Longitude": -0.210998234182405,
    "Zone": "2,3",
    "Postcode": "SW15 6SN"
  },
  {
    "Station": "Eastcote",
    "OS X": 511191,
    "OS Y": 187627,
    "Latitude": 51.576551823245,
    "Longitude": -0.396823299331061,
    "Zone": 5,
    "Postcode": "HA5 1QZ"
  },
  {
    "Station": "Eden Park",
    "OS X": 537396,
    "OS Y": 167598,
    "Latitude": 51.3907961029416,
    "Longitude": -0.0266697155532036,
    "Zone": 5,
    "Postcode": "BR3 3HQ"
  },
  {
    "Station": "Edgware",
    "OS X": 519527,
    "OS Y": 192009,
    "Latitude": 51.6142296221626,
    "Longitude": -0.275093666466036,
    "Zone": 5,
    "Postcode": "HA8 7AW"
  },
  {
    "Station": "Edgware Road (Bakerloo)",
    "OS X": 527026,
    "OS Y": 181778,
    "Latitude": 51.5206453612591,
    "Longitude": -0.170539551586277,
    "Zone": 1,
    "Postcode": "W2 1DY"
  },
  {
    "Station": "Edgware Road (Circle/District/Hammersmith and City)",
    "OS X": 527227,
    "OS Y": 181711,
    "Latitude": 51.5199980431141,
    "Longitude": -0.167668254281134,
    "Zone": 1,
    "Postcode": "NW1 5DH"
  },
  {
    "Station": "Edmonton Green",
    "OS X": 534273,
    "OS Y": 193590,
    "Latitude": 51.6251157025944,
    "Longitude": -0.0616390194516995,
    "Zone": 4,
    "Postcode": "N9 9DX"
  },
  {
    "Station": "Elephant and Castle",
    "OS X": 531940,
    "OS Y": 179144,
    "Latitude": 51.4958493824392,
    "Longitude": -0.100738714840864,
    "Zone": "1,2",
    "Postcode": "SE1 6LW"
  },
  {
    "Station": "Elm Park",
    "OS X": 552446,
    "OS Y": 185647,
    "Latitude": 51.5491245841858,
    "Longitude": 0.197252681986762,
    "Zone": 6,
    "Postcode": "RM12 4RW"
  },
  {
    "Station": "Elmers End",
    "OS X": 535788,
    "OS Y": 168389,
    "Latitude": 51.3982911086249,
    "Longitude": -0.0494638322785197,
    "Zone": 4,
    "Postcode": "BR3 4EJ"
  },
  {
    "Station": "Elmstead Woods",
    "OS X": 542247,
    "OS Y": 170656,
    "Latitude": 51.4170806314648,
    "Longitude": 0.0442293427243444,
    "Zone": 4,
    "Postcode": "BR7 5EW"
  },
  {
    "Station": "Elstree and Borehamwood",
    "OS X": 519098,
    "OS Y": 196299,
    "Latitude": 51.6528755760948,
    "Longitude": -0.279828619474053,
    "Zone": 6,
    "Postcode": "WD6 3LS"
  },
  {
    "Station": "Eltham",
    "OS X": 542690,
    "OS Y": 174962,
    "Latitude": 51.4556622208013,
    "Longitude": 0.052329307733168,
    "Zone": 4,
    "Postcode": "SE9 6UB"
  },
  {
    "Station": "Elverson Road",
    "OS X": 537848,
    "OS Y": 176243,
    "Latitude": 51.4683721899454,
    "Longitude": -0.016816376211146,
    "Zone": "2,3",
    "Postcode": "SE8 4LA"
  },
  {
    "Station": "Embankment",
    "OS X": 530406,
    "OS Y": 180380,
    "Latitude": 51.5073124947768,
    "Longitude": -0.122367336527157,
    "Zone": 1,
    "Postcode": "WC2N 6NS"
  },
  {
    "Station": "Emerson Park",
    "OS X": 553971,
    "OS Y": 187918,
    "Latitude": 51.5691149089113,
    "Longitude": 0.220222934339532,
    "Zone": 6,
    "Postcode": "RM11 2JR"
  },
  {
    "Station": "Enfield Chase",
    "OS X": 532181,
    "OS Y": 196607,
    "Latitude": 51.6527221112153,
    "Longitude": -0.0907042054849836,
    "Zone": 5,
    "Postcode": "EN2 7AA"
  },
  {
    "Station": "Enfield Lock",
    "OS X": 536437,
    "OS Y": 198737,
    "Latitude": 51.6708461220463,
    "Longitude": -0.0283910701059887,
    "Zone": 6,
    "Postcode": "EN3 6BW"
  },
  {
    "Station": "Enfield Town",
    "OS X": 532970,
    "OS Y": 196544,
    "Latitude": 51.6519700723096,
    "Longitude": -0.0793299220890822,
    "Zone": 5,
    "Postcode": "EN1 1YB"
  },
  {
    "Station": "Epping",
    "OS X": 546197,
    "OS Y": 201552,
    "Latitude": 51.6936861661113,
    "Longitude": 0.113825552744826,
    "Zone": 6,
    "Postcode": "CM16 4HW"
  },
  {
    "Station": "Epsom Downs",
    "OS X": 522805,
    "OS Y": 159756,
    "Latitude": 51.3236594388377,
    "Longitude": -0.238970226780431,
    "Zone": 6,
    "Postcode": "KT17 4JX"
  },
  {
    "Station": "Erith",
    "OS X": 551075,
    "OS Y": 178096,
    "Latitude": 51.4816476750127,
    "Longitude": 0.174261289232435,
    "Zone": 6,
    "Postcode": "DA8 1TY"
  },
  {
    "Station": "Essex Road",
    "OS X": 532114,
    "OS Y": 184132,
    "Latitude": 51.5406333108504,
    "Longitude": -0.0963655258956236,
    "Zone": 2,
    "Postcode": "N1 2SU"
  },
  {
    "Station": "Euston",
    "OS X": 529587,
    "OS Y": 182735,
    "Latitude": 51.5286643305288,
    "Longitude": -0.133296471846732,
    "Zone": 1,
    "Postcode": "NW1 2DU"
  },
  {
    "Station": "Euston Square",
    "OS X": 529587,
    "OS Y": 182735,
    "Latitude": 51.5286643305288,
    "Longitude": -0.133296471846732,
    "Zone": 1,
    "Postcode": "NW1 2BN"
  },
  {
    "Station": "Ewell East",
    "OS X": 522571,
    "OS Y": 162152,
    "Latitude": 51.3452438762062,
    "Longitude": -0.241503001372188,
    "Zone": 6,
    "Postcode": "KT17 1QR"
  },
  {
    "Station": "Ewell West",
    "OS X": 521473,
    "OS Y": 162654,
    "Latitude": 51.3499911421544,
    "Longitude": -0.25708913304289,
    "Zone": 6,
    "Postcode": "KT17 1TU"
  },
  {
    "Station": "Fairlop",
    "OS X": 544902,
    "OS Y": 190655,
    "Latitude": 51.5961095431963,
    "Longitude": 0.0905932794268205,
    "Zone": 4,
    "Postcode": "IG6 3HD"
  },
  {
    "Station": "Falconwood",
    "OS X": 544498,
    "OS Y": 175394,
    "Latitude": 51.4590857963862,
    "Longitude": 0.0785096930122727,
    "Zone": 4,
    "Postcode": "SE9 2RN"
  },
  {
    "Station": "Farringdon",
    "OS X": 531585,
    "OS Y": 181844,
    "Latitude": 51.5201956882975,
    "Longitude": -0.10484306195035,
    "Zone": 1,
    "Postcode": "EC1M 6BY"
  },
  {
    "Station": "Feltham",
    "OS X": 510601,
    "OS Y": 173298,
    "Latitude": 51.4478791729913,
    "Longitude": -0.409824480951765,
    "Zone": 6,
    "Postcode": "TW13 4BY"
  },
  {
    "Station": "Fenchurch Street",
    "OS X": 533434,
    "OS Y": 180932,
    "Latitude": 51.5115667058932,
    "Longitude": -0.0785541528077214,
    "Zone": 1,
    "Postcode": "EC3M 4AJ"
  },
  {
    "Station": "Fieldway",
    "OS X": 537665,
    "OS Y": 163212,
    "Latitude": 51.351317007255,
    "Longitude": -0.0245032653661046,
    "Zone": "3,4,5,6",
    "Postcode": "CR0 0QA"
  },
  {
    "Station": "Finchley Central",
    "OS X": 525232,
    "OS Y": 190664,
    "Latitude": 51.6009032505219,
    "Longitude": -0.193220636879031,
    "Zone": 4,
    "Postcode": "N3 2RY"
  },
  {
    "Station": "Finchley Road",
    "OS X": 526293,
    "OS Y": 184703,
    "Latitude": 51.5470961986729,
    "Longitude": -0.180050560513333,
    "Zone": 2,
    "Postcode": "NW6 3BS"
  },
  {
    "Station": "Finchley Road and Frognal",
    "OS X": 526035,
    "OS Y": 185033,
    "Latitude": 51.550119498241,
    "Longitude": -0.183651202652137,
    "Zone": 2,
    "Postcode": "NW3 5HT"
  },
  {
    "Station": "Finsbury Park",
    "OS X": 531385,
    "OS Y": 186784,
    "Latitude": 51.5646354455769,
    "Longitude": -0.10588148617519,
    "Zone": 2,
    "Postcode": "N4 3JU"
  },
  {
    "Station": "Forest Gate",
    "OS X": 540447,
    "OS Y": 185322,
    "Latitude": 51.549316118809,
    "Longitude": 0.0241890915067026,
    "Zone": 3,
    "Postcode": "E7 0QH"
  },
  {
    "Station": "Forest Hill",
    "OS X": 535398,
    "OS Y": 172943,
    "Latitude": 51.4393083123694,
    "Longitude": -0.0533285044148391,
    "Zone": 3,
    "Postcode": "SE23 3HD"
  },
  {
    "Station": "Fulham Broadway",
    "OS X": 525402,
    "OS Y": 177244,
    "Latitude": 51.4802609035391,
    "Longitude": -0.19554416374799,
    "Zone": 2,
    "Postcode": "SW6 1BY"
  },
  {
    "Station": "Fulwell",
    "OS X": 514832,
    "OS Y": 171841,
    "Latitude": 51.4339425653999,
    "Longitude": -0.349438524762415,
    "Zone": 6,
    "Postcode": "TW2 5NY"
  },
  {
    "Station": "Gallions Reach",
    "OS X": 543873,
    "OS Y": 180935,
    "Latitude": 51.5090341399984,
    "Longitude": 0.0717753944216077,
    "Zone": 3,
    "Postcode": "E6 6FZ"
  },
  {
    "Station": "Gants Hill",
    "OS X": 543266,
    "OS Y": 188432,
    "Latitude": 51.5765529520727,
    "Longitude": 0.0660840978012218,
    "Zone": 4,
    "Postcode": "IG2 6UD"
  },
  {
    "Station": "George Street",
    "OS X": 532432,
    "OS Y": 165594,
    "Latitude": 51.3739660568411,
    "Longitude": -0.0987181052186884,
    "Zone": "3,4,5,6",
    "Postcode": "CRO 1LA"
  },
  {
    "Station": "Gidea Park",
    "OS X": 552941,
    "OS Y": 189306,
    "Latitude": 51.5818657467287,
    "Longitude": 0.205976980623001,
    "Zone": 6,
    "Postcode": "RM2 6BX"
  },
  {
    "Station": "Gipsy Hill",
    "OS X": 533321,
    "OS Y": 171237,
    "Latitude": 51.424469522694,
    "Longitude": -0.0838351675167364,
    "Zone": 3,
    "Postcode": "SE19 1PL"
  },
  {
    "Station": "Gloucester Road",
    "OS X": 526196,
    "OS Y": 178848,
    "Latitude": 51.4944995577167,
    "Longitude": -0.183543559526477,
    "Zone": 1,
    "Postcode": "SW7 4SF"
  },
  {
    "Station": "Golders Green",
    "OS X": 525199,
    "OS Y": 187471,
    "Latitude": 51.5722155332352,
    "Longitude": -0.194834559142163,
    "Zone": 3,
    "Postcode": "NW11 7RN"
  },
  {
    "Station": "Goldhawk Road",
    "OS X": 523131,
    "OS Y": 179616,
    "Latitude": 51.5020769665713,
    "Longitude": -0.227404006254784,
    "Zone": 2,
    "Postcode": "W12 8EG"
  },
  {
    "Station": "Goodge Street",
    "OS X": 529505,
    "OS Y": 181837,
    "Latitude": 51.5206131094572,
    "Longitude": -0.134807690165887,
    "Zone": 1,
    "Postcode": "W1T 2HF"
  },
  {
    "Station": "Goodmayes",
    "OS X": 546462,
    "OS Y": 187369,
    "Latitude": 51.5661809824052,
    "Longitude": 0.111729654287275,
    "Zone": 4,
    "Postcode": "IG3 9UH"
  },
  {
    "Station": "Gordon Hill",
    "OS X": 531889,
    "OS Y": 197799,
    "Latitude": 51.6635022374665,
    "Longitude": -0.0944732997864739,
    "Zone": 5,
    "Postcode": "EN2 0QU"
  },
  {
    "Station": "Gospel Oak",
    "OS X": 528263,
    "OS Y": 185677,
    "Latitude": 51.5554052931996,
    "Longitude": -0.151301032571058,
    "Zone": 2,
    "Postcode": "NW5 1LT"
  },
  {
    "Station": "Grange Hill",
    "OS X": 544963,
    "OS Y": 192590,
    "Latitude": 51.6134804256286,
    "Longitude": 0.092272529661441,
    "Zone": 4,
    "Postcode": "IG7 5QB"
  },
  {
    "Station": "Grange Park",
    "OS X": 531753,
    "OS Y": 195472,
    "Latitude": 51.6426230772477,
    "Longitude": -0.0973144238034144,
    "Zone": 5,
    "Postcode": "N21 1RE"
  },
  {
    "Station": "Gravel Hill",
    "OS X": 536359,
    "OS Y": 163536,
    "Latitude": 51.3545432553855,
    "Longitude": -0.0431216987549667,
    "Zone": "3,4,5,6",
    "Postcode": "CR0 5BJ"
  },
  {
    "Station": "Great Portland Street",
    "OS X": 528861,
    "OS Y": 182174,
    "Latitude": 51.5237887958946,
    "Longitude": -0.143961425280776,
    "Zone": 1,
    "Postcode": "W1W 5PP"
  },
  {
    "Station": "Green Park",
    "OS X": 529012,
    "OS Y": 180283,
    "Latitude": 51.5067604844939,
    "Longitude": -0.142477575597482,
    "Zone": 1,
    "Postcode": "W1J 7BX"
  },
  {
    "Station": "Greenford",
    "OS X": 514808,
    "OS Y": 183861,
    "Latitude": 51.541980070869,
    "Longitude": -0.34587874010204,
    "Zone": 4,
    "Postcode": "UB6 8PR"
  },
  {
    "Station": "Greenwich",
    "OS X": 537956,
    "OS Y": 177267,
    "Latitude": 51.4775476642376,
    "Longitude": -0.0148630836142616,
    "Zone": "2,3",
    "Postcode": "SE10 8JQ"
  },
  {
    "Station": "Grove Park",
    "OS X": 540702,
    "OS Y": 172099,
    "Latitude": 51.4304326436942,
    "Longitude": 0.0225985021581947,
    "Zone": 4,
    "Postcode": "SE12 0PW"
  },
  {
    "Station": "Gunnersbury",
    "OS X": 519843,
    "OS Y": 178401,
    "Latitude": 51.4918634114529,
    "Longitude": -0.275164135822926,
    "Zone": 3,
    "Postcode": "W4 5RP"
  },
  {
    "Station": "Hackbridge",
    "OS X": 528582,
    "OS Y": 165929,
    "Latitude": 51.3778608995644,
    "Longitude": -0.153879198222095,
    "Zone": 4,
    "Postcode": "SM6 7BJ"
  },
  {
    "Station": "Hackney Central",
    "OS X": 534922,
    "OS Y": 184943,
    "Latitude": 51.5472574449828,
    "Longitude": -0.0555895119781322,
    "Zone": 2,
    "Postcode": "E8 1LL"
  },
  {
    "Station": "Hackney Downs",
    "OS X": 534598,
    "OS Y": 185137,
    "Latitude": 51.549078085174,
    "Longitude": -0.0601851050631527,
    "Zone": 2,
    "Postcode": "E8 1LA"
  },
  {
    "Station": "Hackney Wick",
    "OS X": 537036,
    "OS Y": 184588,
    "Latitude": 51.543558406496,
    "Longitude": -0.0252595028052464,
    "Zone": 2,
    "Postcode": "E9 5ER"
  },
  {
    "Station": "Hadley Wood",
    "OS X": 526197,
    "OS Y": 198199,
    "Latitude": 51.6684028710821,
    "Longitude": -0.176581189644067,
    "Zone": 6,
    "Postcode": "EN4 0EJ"
  },
  {
    "Station": "Haggerston",
    "OS X": 533560,
    "OS Y": 183953,
    "Latitude": 51.5386847301792,
    "Longitude": -0.0755952580882811,
    "Zone": 2,
    "Postcode": "E8 4DY"
  },
  {
    "Station": "Hainault",
    "OS X": 545124,
    "OS Y": 191411,
    "Latitude": 51.6028453270268,
    "Longitude": 0.0941085503026948,
    "Zone": 4,
    "Postcode": "IG6 3BD"
  },
  {
    "Station": "Hammersmith (District)",
    "OS X": 523474,
    "OS Y": 178483,
    "Latitude": 51.4918197760793,
    "Longitude": -0.222860928771942,
    "Zone": 2,
    "Postcode": "W6 9YA"
  },
  {
    "Station": "Hammersmith (Met.)",
    "OS X": 523346,
    "OS Y": 178665,
    "Latitude": 51.4934833521202,
    "Longitude": -0.224640157433783,
    "Zone": 2,
    "Postcode": "W6 0ED"
  },
  {
    "Station": "Hampstead",
    "OS X": 526408,
    "OS Y": 185757,
    "Latitude": 51.5565425953294,
    "Longitude": -0.178014559946798,
    "Zone": 2,
    "Postcode": "NW3 1QG"
  },
  {
    "Station": "Hampstead Heath",
    "OS X": 527344,
    "OS Y": 185631,
    "Latitude": 51.5551999245613,
    "Longitude": -0.164566183247471,
    "Zone": 3,
    "Postcode": "NW3 2QD"
  },
  {
    "Station": "Hampton",
    "OS X": 513299,
    "OS Y": 169797,
    "Latitude": 51.4158795524432,
    "Longitude": -0.372135253741401,
    "Zone": 6,
    "Postcode": "TW12 2HU"
  },
  {
    "Station": "Hampton Court",
    "OS X": 515376,
    "OS Y": 168332,
    "Latitude": 51.4022938774361,
    "Longitude": -0.34275715215215,
    "Zone": 6,
    "Postcode": "KT8 9AE"
  },
  {
    "Station": "Hampton Wick",
    "OS X": 517407,
    "OS Y": 169752,
    "Latitude": 51.4146400423187,
    "Longitude": -0.313103609659083,
    "Zone": 6,
    "Postcode": "KT1 4DQ"
  },
  {
    "Station": "Hanger Lane",
    "OS X": 518506,
    "OS Y": 182621,
    "Latitude": 51.5300720336304,
    "Longitude": -0.292996145555265,
    "Zone": 3,
    "Postcode": "W5 1DL"
  },
  {
    "Station": "Hanwell",
    "OS X": 515426,
    "OS Y": 180560,
    "Latitude": 51.5121859578482,
    "Longitude": -0.338051884444727,
    "Zone": 4,
    "Postcode": "W7 3EB"
  },
  {
    "Station": "Harlesden",
    "OS X": 520952,
    "OS Y": 183367,
    "Latitude": 51.5362583277376,
    "Longitude": -0.257495674234359,
    "Zone": 3,
    "Postcode": "NW10 8UT"
  },
  {
    "Station": "Harold Wood",
    "OS X": 554858,
    "OS Y": 190626,
    "Latitude": 51.5932022178275,
    "Longitude": 0.234204073424791,
    "Zone": 6,
    "Postcode": "RM3 0BL"
  },
  {
    "Station": "Harringay",
    "OS X": 531395,
    "OS Y": 188200,
    "Latitude": 51.5773579093944,
    "Longitude": -0.105208252550848,
    "Zone": 3,
    "Postcode": "N4 1RW"
  },
  {
    "Station": "Harringay Green Lanes",
    "OS X": 531880,
    "OS Y": 188189,
    "Latitude": 51.5771458929243,
    "Longitude": -0.0982173917761519,
    "Zone": 3,
    "Postcode": "N4 2NU"
  },
  {
    "Station": "Harrington Road",
    "OS X": 535002,
    "OS Y": 168535,
    "Latitude": 51.3997905718013,
    "Longitude": -0.0606999545568372,
    "Zone": "3,4,5,6",
    "Postcode": "SE25 4NF"
  },
  {
    "Station": "Harrow and Wealdstone",
    "OS X": 515486,
    "OS Y": 189508,
    "Latitude": 51.5925946326695,
    "Longitude": -0.334252685083283,
    "Zone": 5,
    "Postcode": "HA3 7RF"
  },
  {
    "Station": "Harrow-on-the-Hill",
    "OS X": 515329,
    "OS Y": 188035,
    "Latitude": 51.5793881186851,
    "Longitude": -0.337001517323026,
    "Zone": 5,
    "Postcode": "HA1 1BB"
  },
  {
    "Station": "Hatch End",
    "OS X": 513024,
    "OS Y": 191370,
    "Latitude": 51.6098285039178,
    "Longitude": -0.369178780976322,
    "Zone": 6,
    "Postcode": "HA5 5LZ"
  },
  {
    "Station": "Hatton Cross",
    "OS X": 509614,
    "OS Y": 175369,
    "Latitude": 51.466685304207,
    "Longitude": -0.423380563424048,
    "Zone": "5,6",
    "Postcode": "TW6 3PF"
  },
  {
    "Station": "Haydons Road",
    "OS X": 526012,
    "OS Y": 171161,
    "Latitude": 51.425457318206,
    "Longitude": -0.188929359351404,
    "Zone": 3,
    "Postcode": "SW19 8SL"
  },
  {
    "Station": "Hayes",
    "OS X": 540003,
    "OS Y": 165993,
    "Latitude": 51.3757367068294,
    "Longitude": 0.0101426524637168,
    "Zone": 5,
    "Postcode": "BR2 7EN"
  },
  {
    "Station": "Hayes and Harlington",
    "OS X": 509717,
    "OS Y": 179417,
    "Latitude": 51.5030490745061,
    "Longitude": -0.420641903606725,
    "Zone": 5,
    "Postcode": "UB3 4BX"
  },
  {
    "Station": "Headstone Lane",
    "OS X": 513892,
    "OS Y": 190574,
    "Latitude": 51.6024996261806,
    "Longitude": -0.356907514381109,
    "Zone": 5,
    "Postcode": "HA2 6NB"
  },
  {
    "Station": "Heathrow Terminal 4",
    "OS X": 507939,
    "OS Y": 174565,
    "Latitude": 51.4597804296919,
    "Longitude": -0.447729589959589,
    "Zone": 6,
    "Postcode": "TW6 3AA"
  },
  {
    "Station": "Heathrow Terminal 5",
    "OS X": 504934,
    "OS Y": 175642,
    "Latitude": 51.4700254258905,
    "Longitude": -0.490647503171403,
    "Zone": 6,
    "Postcode": "TW6 2GA"
  },
  {
    "Station": "Heathrow Terminals 1 2 3",
    "OS X": 507587,
    "OS Y": 175838,
    "Latitude": 51.4712894006688,
    "Longitude": -0.452407225588878,
    "Zone": 6,
    "Postcode": "TW6 1EB"
  },
  {
    "Station": "Hendon",
    "OS X": 522143,
    "OS Y": 188271,
    "Latitude": 51.5800749832165,
    "Longitude": -0.238630520603124,
    "Zone": "3,4",
    "Postcode": "NW4 4PT"
  },
  {
    "Station": "Hendon Central",
    "OS X": 522959,
    "OS Y": 188631,
    "Latitude": 51.5831330467477,
    "Longitude": -0.226734140088258,
    "Zone": "3,4",
    "Postcode": "NW4 3AS"
  },
  {
    "Station": "Herne Hill",
    "OS X": 531934,
    "OS Y": 174486,
    "Latitude": 51.4539913697286,
    "Longitude": -0.102562908313382,
    "Zone": "2,3",
    "Postcode": "SE24 0JW"
  },
  {
    "Station": "Heron Quays",
    "OS X": 537386,
    "OS Y": 180127,
    "Latitude": 51.5033865688459,
    "Longitude": -0.0219535320624432,
    "Zone": 2,
    "Postcode": "E14 4JH"
  },
  {
    "Station": "High Barnet",
    "OS X": 525027,
    "OS Y": 196310,
    "Latitude": 51.6516882533421,
    "Longitude": -0.194165380168301,
    "Zone": 5,
    "Postcode": "EN5 5RP"
  },
  {
    "Station": "High Street Kensington",
    "OS X": 525622,
    "OS Y": 179527,
    "Latitude": 51.5007294453891,
    "Longitude": -0.191566057626722,
    "Zone": 1,
    "Postcode": "W8 5SA"
  },
  {
    "Station": "Highams Park",
    "OS X": 538581,
    "OS Y": 191841,
    "Latitude": 51.6083559935251,
    "Longitude": -0.000135285919517002,
    "Zone": 4,
    "Postcode": "E4 9LA"
  },
  {
    "Station": "Highbury and Islington",
    "OS X": 531562,
    "OS Y": 184770,
    "Latitude": 51.5464955066651,
    "Longitude": -0.104082139863697,
    "Zone": 2,
    "Postcode": "N1 1SE"
  },
  {
    "Station": "Highgate",
    "OS X": 528503,
    "OS Y": 188158,
    "Latitude": 51.5776466172769,
    "Longitude": -0.146934862183765,
    "Zone": 3,
    "Postcode": "N6 5BH"
  },
  {
    "Station": "Hillingdon",
    "OS X": 507567,
    "OS Y": 185015,
    "Latitude": 51.5537775159057,
    "Longitude": -0.449897993430179,
    "Zone": 6,
    "Postcode": "UB10 9NR"
  },
  {
    "Station": "Hither Green",
    "OS X": 538997,
    "OS Y": 174497,
    "Latitude": 51.4524017221749,
    "Longitude": -0.000970912324506991,
    "Zone": 3,
    "Postcode": "SE13 5NF"
  },
  {
    "Station": "Holborn",
    "OS X": 530553,
    "OS Y": 181488,
    "Latitude": 51.5172357350693,
    "Longitude": -0.11984050743238,
    "Zone": 1,
    "Postcode": "WC2B 6AA"
  },
  {
    "Station": "Holland Park",
    "OS X": 524564,
    "OS Y": 180215,
    "Latitude": 51.5071464839058,
    "Longitude": -0.206557777890637,
    "Zone": 2,
    "Postcode": "W11 3RB"
  },
  {
    "Station": "Holloway Road",
    "OS X": 530930,
    "OS Y": 185457,
    "Latitude": 51.5528161033705,
    "Longitude": -0.11293569695285,
    "Zone": 2,
    "Postcode": "N7 8HS"
  },
  {
    "Station": "Homerton",
    "OS X": 536108,
    "OS Y": 184901,
    "Latitude": 51.5465954466172,
    "Longitude": -0.0385123471042932,
    "Zone": 2,
    "Postcode": "E9 5SD"
  },
  {
    "Station": "Honor Oak Park",
    "OS X": 536002,
    "OS Y": 174221,
    "Latitude": 51.4506482407612,
    "Longitude": -0.0441531211420576,
    "Zone": 3,
    "Postcode": "SE23 3LE"
  },
  {
    "Station": "Hornchurch",
    "OS X": 553931,
    "OS Y": 186274,
    "Latitude": 51.5543551095852,
    "Longitude": 0.218926996584347,
    "Zone": 6,
    "Postcode": "RM12 6LS"
  },
  {
    "Station": "Hornsey",
    "OS X": 530911,
    "OS Y": 189202,
    "Latitude": 51.5864748515145,
    "Longitude": -0.111815638121109,
    "Zone": 3,
    "Postcode": "N8 8SE"
  },
  {
    "Station": "Hounslow",
    "OS X": 513902,
    "OS Y": 174998,
    "Latitude": 51.4625048175857,
    "Longitude": -0.361796256019886,
    "Zone": 5,
    "Postcode": "TW3 3DL"
  },
  {
    "Station": "Hounslow Central",
    "OS X": 513592,
    "OS Y": 175928,
    "Latitude": 51.4709257658921,
    "Longitude": -0.365958129172842,
    "Zone": 4,
    "Postcode": "TW3 1JG"
  },
  {
    "Station": "Hounslow East",
    "OS X": 514327,
    "OS Y": 176254,
    "Latitude": 51.47370789438,
    "Longitude": -0.35527532185487,
    "Zone": 4,
    "Postcode": "TW3 4AB"
  },
  {
    "Station": "Hounslow West",
    "OS X": 512215,
    "OS Y": 176140,
    "Latitude": 51.4731057158167,
    "Longitude": -0.385707628650378,
    "Zone": 5,
    "Postcode": "TW3 3DH"
  },
  {
    "Station": "Hoxton",
    "OS X": 533582,
    "OS Y": 183142,
    "Latitude": 51.5313916125251,
    "Longitude": -0.0755856472034941,
    "Zone": "1,2",
    "Postcode": "E2 8HR"
  },
  {
    "Station": "Hyde Park Corner",
    "OS X": 528330,
    "OS Y": 179801,
    "Latitude": 51.5025840127082,
    "Longitude": -0.15247411397849,
    "Zone": 1,
    "Postcode": "SW1X 7LY"
  },
  {
    "Station": "Ickenham",
    "OS X": 508127,
    "OS Y": 185811,
    "Latitude": 51.5608250533895,
    "Longitude": -0.441579512642598,
    "Zone": 6,
    "Postcode": "UB10 8PD"
  },
  {
    "Station": "Ilford",
    "OS X": 543501,
    "OS Y": 186501,
    "Latitude": 51.5591422415241,
    "Longitude": 0.0686851908980356,
    "Zone": 4,
    "Postcode": "IG1 4DU"
  },
  {
    "Station": "Imperial Wharf",
    "OS X": 526299,
    "OS Y": 176674,
    "Latitude": 51.4749389270134,
    "Longitude": -0.182837504741453,
    "Zone": 2,
    "Postcode": "SW6 2HA"
  },
  {
    "Station": "Island Gardens",
    "OS X": 538228,
    "OS Y": 178432,
    "Latitude": 51.4879500881204,
    "Longitude": -0.0104933031356475,
    "Zone": 2,
    "Postcode": "E14 3FA"
  },
  {
    "Station": "Isleworth",
    "OS X": 515570,
    "OS Y": 176430,
    "Latitude": 51.475037423644,
    "Longitude": -0.337328765089716,
    "Zone": 4,
    "Postcode": "TW7 4BX"
  },
  {
    "Station": "Kenley",
    "OS X": 532400,
    "OS Y": 160100,
    "Latitude": 51.3246003124125,
    "Longitude": -0.101219712762299,
    "Zone": 6,
    "Postcode": "CR8 5JA"
  },
  {
    "Station": "Kennington",
    "OS X": 531660,
    "OS Y": 178337,
    "Latitude": 51.4886624583341,
    "Longitude": -0.105070613410369,
    "Zone": 2,
    "Postcode": "SE11 4JQ"
  },
  {
    "Station": "Kensal Green",
    "OS X": 523241,
    "OS Y": 182784,
    "Latitude": 51.5305242141579,
    "Longitude": -0.224713384073025,
    "Zone": 2,
    "Postcode": "NW10 5JT"
  },
  {
    "Station": "Kensal Rise",
    "OS X": 523501,
    "OS Y": 183201,
    "Latitude": 51.5342150645901,
    "Longitude": -0.220820978659314,
    "Zone": 2,
    "Postcode": "NW10 3NT"
  },
  {
    "Station": "Kensington (Olympia)",
    "OS X": 524324,
    "OS Y": 179178,
    "Latitude": 51.4978796991787,
    "Longitude": -0.210379242339114,
    "Zone": 2,
    "Postcode": "W14 0NE"
  },
  {
    "Station": "Kent House",
    "OS X": 535999,
    "OS Y": 170000,
    "Latitude": 51.4127176592102,
    "Longitude": -0.0458155531797617,
    "Zone": 4,
    "Postcode": "BR3 1HY"
  },
  {
    "Station": "Kentish Town",
    "OS X": 529029,
    "OS Y": 185096,
    "Latitude": 51.5500095216902,
    "Longitude": -0.140471263842415,
    "Zone": 2,
    "Postcode": "NW5 2AA"
  },
  {
    "Station": "Kentish Town West",
    "OS X": 528603,
    "OS Y": 184700,
    "Latitude": 51.5465479695244,
    "Longitude": -0.146756409869457,
    "Zone": 2,
    "Postcode": "NW5 3LD"
  },
  {
    "Station": "Kenton",
    "OS X": 516833,
    "OS Y": 188304,
    "Latitude": 51.5814962838169,
    "Longitude": -0.315216866613499,
    "Zone": 4,
    "Postcode": "HA3 0XS"
  },
  {
    "Station": "Kew Bridge",
    "OS X": 518898,
    "OS Y": 178172,
    "Latitude": 51.4900046159748,
    "Longitude": -0.288846494745842,
    "Zone": 3,
    "Postcode": "TW8 0EF"
  },
  {
    "Station": "Kew Gardens",
    "OS X": 519173,
    "OS Y": 176708,
    "Latitude": 51.4767891362521,
    "Longitude": -0.285381011417179,
    "Zone": "3,4",
    "Postcode": "TW9 3PZ"
  },
  {
    "Station": "Kidbrooke",
    "OS X": 540999,
    "OS Y": 175697,
    "Latitude": 51.4626901879326,
    "Longitude": 0.028300239135906,
    "Zone": 3,
    "Postcode": "SE3 9NF"
  },
  {
    "Station": "Kilburn",
    "OS X": 524589,
    "OS Y": 184644,
    "Latitude": 51.5469444353661,
    "Longitude": -0.204632719131385,
    "Zone": 2,
    "Postcode": "NW6 7QL"
  },
  {
    "Station": "Kilburn High Road",
    "OS X": 525553,
    "OS Y": 183591,
    "Latitude": 51.5372677411075,
    "Longitude": -0.19111310573361,
    "Zone": 2,
    "Postcode": "NW6 7QL"
  },
  {
    "Station": "Kilburn Park",
    "OS X": 525361,
    "OS Y": 183349,
    "Latitude": 51.5351355369049,
    "Longitude": -0.193966057123936,
    "Zone": 2,
    "Postcode": "NW6 5AD"
  },
  {
    "Station": "King George V",
    "OS X": 543231,
    "OS Y": 180135,
    "Latitude": 51.5020086073547,
    "Longitude": 0.0622062138768401,
    "Zone": 3,
    "Postcode": "E16 2JF"
  },
  {
    "Station": "King Henry's Drive",
    "OS X": 537978,
    "OS Y": 162558,
    "Latitude": 51.3453640975883,
    "Longitude": -0.0202647574466554,
    "Zone": "3,4,5,6",
    "Postcode": "CR0 0LH"
  },
  {
    "Station": "King's Cross",
    "OS X": 530312,
    "OS Y": 182991,
    "Latitude": 51.5307981909079,
    "Longitude": -0.122756421397208,
    "Zone": 1,
    "Postcode": "N1 9AL"
  },
  {
    "Station": "Kings Cross St. Pancras",
    "OS X": 530236,
    "OS Y": 182935,
    "Latitude": 51.5303124622023,
    "Longitude": -0.123872129573615,
    "Zone": 1,
    "Postcode": "NW1 2BA"
  },
  {
    "Station": "Kingsbury",
    "OS X": 519361,
    "OS Y": 188739,
    "Latitude": 51.5848765169933,
    "Longitude": -0.278601608230903,
    "Zone": 4,
    "Postcode": "NW9 9EG"
  },
  {
    "Station": "Kingston",
    "OS X": 518244,
    "OS Y": 169549,
    "Latitude": 51.4126417642477,
    "Longitude": -0.30114104020205,
    "Zone": 6,
    "Postcode": "KT1 1UJ"
  },
  {
    "Station": "Kingswood",
    "OS X": 524816,
    "OS Y": 156585,
    "Latitude": 51.294723138992,
    "Longitude": -0.211233226116293,
    "Zone": 6,
    "Postcode": "KT20 6EN"
  },
  {
    "Station": "Knightsbridge",
    "OS X": 527765,
    "OS Y": 179650,
    "Latitude": 51.5013548976071,
    "Longitude": -0.160664486118808,
    "Zone": 1,
    "Postcode": "SW3 1ED"
  },
  {
    "Station": "Knockholt",
    "OS X": 548499,
    "OS Y": 162896,
    "Latitude": 51.3457519392544,
    "Longitude": 0.130831038819843,
    "Zone": 6,
    "Postcode": "TN14 7HR"
  },
  {
    "Station": "Ladbroke Grove",
    "OS X": 524284,
    "OS Y": 181328,
    "Latitude": 51.5172106734536,
    "Longitude": -0.210198172458574,
    "Zone": 2,
    "Postcode": "W10 6HJ"
  },
  {
    "Station": "Ladywell",
    "OS X": 537716,
    "OS Y": 174884,
    "Latitude": 51.4561921350751,
    "Longitude": -0.019244401145345,
    "Zone": 3,
    "Postcode": "SE13 7XB"
  },
  {
    "Station": "Lambeth North",
    "OS X": 531165,
    "OS Y": 179489,
    "Latitude": 51.4991299458658,
    "Longitude": -0.111768261180963,
    "Zone": 1,
    "Postcode": "SE1 7XG"
  },
  {
    "Station": "Lancaster Gate",
    "OS X": 526711,
    "OS Y": 180796,
    "Latitude": 51.5118909430837,
    "Longitude": -0.175429928574922,
    "Zone": 1,
    "Postcode": "W2 4QH"
  },
  {
    "Station": "Langdon Park",
    "OS X": 537807,
    "OS Y": 181863,
    "Latitude": 51.5188839383514,
    "Longitude": -0.0152137989598117,
    "Zone": 2,
    "Postcode": "E14 6NW"
  },
  {
    "Station": "Latimer Road",
    "OS X": 523789,
    "OS Y": 180954,
    "Latitude": 51.5139580984839,
    "Longitude": -0.217459666065143,
    "Zone": 2,
    "Postcode": "W10 6SZ"
  },
  {
    "Station": "Lebanon Road",
    "OS X": 533385,
    "OS Y": 165756,
    "Latitude": 51.3751989969703,
    "Longitude": -0.0849736491745109,
    "Zone": "3,4,5,6",
    "Postcode": "CR0 6SF"
  },
  {
    "Station": "Lee",
    "OS X": 540002,
    "OS Y": 174197,
    "Latitude": 51.4494585198825,
    "Longitude": 0.013364692370397,
    "Zone": 3,
    "Postcode": "SE12 9JG"
  },
  {
    "Station": "Leicester Square",
    "OS X": 529987,
    "OS Y": 180812,
    "Latitude": 51.5112911816198,
    "Longitude": -0.128242147580481,
    "Zone": 1,
    "Postcode": "WC2H 0AP"
  },
  {
    "Station": "Lewisham",
    "OS X": 538163,
    "OS Y": 175863,
    "Latitude": 51.4648807132354,
    "Longitude": -0.0124327009058803,
    "Zone": "2,3",
    "Postcode": "SE13 7RY"
  },
  {
    "Station": "Leyton",
    "OS X": 538295,
    "OS Y": 186244,
    "Latitude": 51.5581322702431,
    "Longitude": -0.00646533158243596,
    "Zone": 3,
    "Postcode": "E10 5PS"
  },
  {
    "Station": "Leyton Midland Road",
    "OS X": 538150,
    "OS Y": 187490,
    "Latitude": 51.569364239337,
    "Longitude": -0.00806634743339343,
    "Zone": 3,
    "Postcode": "E10 6JT"
  },
  {
    "Station": "Leytonstone",
    "OS X": 539345,
    "OS Y": 187429,
    "Latitude": 51.5685222890996,
    "Longitude": 0.00914045195130117,
    "Zone": "3,4",
    "Postcode": "E11 1HE"
  },
  {
    "Station": "Leytonstone High Road",
    "OS X": 539298,
    "OS Y": 186903,
    "Latitude": 51.5638073441885,
    "Longitude": 0.00825446883118232,
    "Zone": 3,
    "Postcode": "E11 4RE"
  },
  {
    "Station": "Limehouse",
    "OS X": 536150,
    "OS Y": 181087,
    "Latitude": 51.5123121635383,
    "Longitude": -0.0393800777495485,
    "Zone": 2,
    "Postcode": "E14 7JD"
  },
  {
    "Station": "Liverpool Street",
    "OS X": 533160,
    "OS Y": 181596,
    "Latitude": 51.5175982643439,
    "Longitude": -0.0822496222771093,
    "Zone": 1,
    "Postcode": "EC2M 7PR"
  },
  {
    "Station": "Lloyd Park",
    "OS X": 533711,
    "OS Y": 164549,
    "Latitude": 51.3642755351541,
    "Longitude": -0.0807462730721692,
    "Zone": "3,4,5,6",
    "Postcode": "CR0 5RA"
  },
  {
    "Station": "London Bridge",
    "OS X": 532937,
    "OS Y": 180152,
    "Latitude": 51.5046743475629,
    "Longitude": -0.0860055981730393,
    "Zone": 1,
    "Postcode": "SE1 2SW"
  },
  {
    "Station": "London City Airport",
    "OS X": 542231,
    "OS Y": 180294,
    "Latitude": 51.5036896641552,
    "Longitude": 0.0478727154448085,
    "Zone": 3,
    "Postcode": "E16 2DS"
  },
  {
    "Station": "London Fields",
    "OS X": 534795,
    "OS Y": 184212,
    "Latitude": 51.5407188411011,
    "Longitude": -0.0576996864103553,
    "Zone": 2,
    "Postcode": "E8 3PH"
  },
  {
    "Station": "Loughborough Junction",
    "OS X": 531902,
    "OS Y": 175897,
    "Latitude": 51.4666788998768,
    "Longitude": -0.102497341535979,
    "Zone": 2,
    "Postcode": "SW9 8SA"
  },
  {
    "Station": "Loughton",
    "OS X": 542314,
    "OS Y": 195641,
    "Latitude": 51.6415704776977,
    "Longitude": 0.0552790791032814,
    "Zone": 6,
    "Postcode": "IG10 4PD"
  },
  {
    "Station": "Lower Sydenham",
    "OS X": 536831,
    "OS Y": 171372,
    "Latitude": 51.4248468425116,
    "Longitude": -0.033330341542937,
    "Zone": 4,
    "Postcode": "SE26 5AU"
  },
  {
    "Station": "Maida Vale",
    "OS X": 525967,
    "OS Y": 182792,
    "Latitude": 51.5299950567181,
    "Longitude": -0.185432646931354,
    "Zone": 2,
    "Postcode": "W9 1JS"
  },
  {
    "Station": "Malden Manor",
    "OS X": 521101,
    "OS Y": 166497,
    "Latitude": 51.3846095360584,
    "Longitude": -0.261120416398882,
    "Zone": 4,
    "Postcode": "KT3 5PN"
  },
  {
    "Station": "Manor House",
    "OS X": 532074,
    "OS Y": 187482,
    "Latitude": 51.5707471402202,
    "Longitude": -0.0956849762588548,
    "Zone": "2,3",
    "Postcode": "N4 1BZ"
  },
  {
    "Station": "Manor Park",
    "OS X": 541929,
    "OS Y": 185757,
    "Latitude": 51.5528543500504,
    "Longitude": 0.045723870060229,
    "Zone": "3,4",
    "Postcode": "E12 5EP"
  },
  {
    "Station": "Mansion House",
    "OS X": 532347,
    "OS Y": 180962,
    "Latitude": 51.5120917501221,
    "Longitude": -0.0941976577543322,
    "Zone": 1,
    "Postcode": "EC4N 6JD"
  },
  {
    "Station": "Marble Arch",
    "OS X": 527875,
    "OS Y": 181056,
    "Latitude": 51.5139654917905,
    "Longitude": -0.158571216249827,
    "Zone": 1,
    "Postcode": "W1C 2JS"
  },
  {
    "Station": "Maryland",
    "OS X": 539175,
    "OS Y": 184881,
    "Latitude": 51.5456682710343,
    "Longitude": 0.00568165418182294,
    "Zone": 3,
    "Postcode": "E15 1SA"
  },
  {
    "Station": "Marylebone",
    "OS X": 527510,
    "OS Y": 181985,
    "Latitude": 51.5223966684401,
    "Longitude": -0.163492563860306,
    "Zone": 1,
    "Postcode": "NW1 6JJ"
  },
  {
    "Station": "Maze Hill",
    "OS X": 539194,
    "OS Y": 177909,
    "Latitude": 51.4830136565247,
    "Longitude": 0.00320489681765471,
    "Zone": 3,
    "Postcode": "SE10 9XG"
  },
  {
    "Station": "Merton Park",
    "OS X": 525182,
    "OS Y": 169798,
    "Latitude": 51.4133916084448,
    "Longitude": -0.201342031166711,
    "Zone": "3,4,5,6",
    "Postcode": "SW19 3HA"
  },
  {
    "Station": "Mile End",
    "OS X": 536577,
    "OS Y": 182545,
    "Latitude": 51.5253109704202,
    "Longitude": -0.0326660843305231,
    "Zone": 2,
    "Postcode": "E3 4DH"
  },
  {
    "Station": "Mill Hill Broadway",
    "OS X": 521300,
    "OS Y": 191900,
    "Latitude": 51.612871127886,
    "Longitude": -0.249537068494836,
    "Zone": 4,
    "Postcode": "NW7 2JU"
  },
  {
    "Station": "Mill Hill East",
    "OS X": 524057,
    "OS Y": 191460,
    "Latitude": 51.6083166446287,
    "Longitude": -0.209895712873731,
    "Zone": 4,
    "Postcode": "NW7 1BS"
  },
  {
    "Station": "Mitcham",
    "OS X": 527345,
    "OS Y": 168082,
    "Latitude": 51.3974886140722,
    "Longitude": -0.170871647171924,
    "Zone": "3,4,5,6",
    "Postcode": "CR4 4BD"
  },
  {
    "Station": "Mitcham Eastfields",
    "OS X": 528488,
    "OS Y": 169323,
    "Latitude": 51.4083839098653,
    "Longitude": -0.154001718800568,
    "Zone": 3,
    "Postcode": "CR4 2ND"
  },
  {
    "Station": "Mitcham Junction",
    "OS X": 528292,
    "OS Y": 167611,
    "Latitude": 51.3930425679437,
    "Longitude": -0.157436643661822,
    "Zone": 4,
    "Postcode": "CR4 4HN"
  },
  {
    "Station": "Monument",
    "OS X": 532907,
    "OS Y": 180814,
    "Latitude": 51.5106304159018,
    "Longitude": -0.0861883136877794,
    "Zone": 1,
    "Postcode": "EC4R 9AA"
  },
  {
    "Station": "Moor Park",
    "OS X": 508563,
    "OS Y": 193509,
    "Latitude": 51.6299306654104,
    "Longitude": -0.432913027426758,
    "Zone": "6,7",
    "Postcode": "HA6 2JQ"
  },
  {
    "Station": "Moorgate",
    "OS X": 532688,
    "OS Y": 181677,
    "Latitude": 51.5184371390077,
    "Longitude": -0.0890176878750945,
    "Zone": 1,
    "Postcode": "EC2M 6TX"
  },
  {
    "Station": "Morden",
    "OS X": 525664,
    "OS Y": 168563,
    "Latitude": 51.4021859616135,
    "Longitude": -0.194851981723419,
    "Zone": 4,
    "Postcode": "SM4 5AZ"
  },
  {
    "Station": "Morden Road",
    "OS X": 525788,
    "OS Y": 169310,
    "Latitude": 51.408871889006,
    "Longitude": -0.19280567725152,
    "Zone": "3,4,5,6",
    "Postcode": "SW19 3BX"
  },
  {
    "Station": "Morden South",
    "OS X": 525301,
    "OS Y": 167900,
    "Latitude": 51.3963076975749,
    "Longitude": -0.200301562051216,
    "Zone": 4,
    "Postcode": "SM4 5AN"
  },
  {
    "Station": "Mornington Crescent",
    "OS X": 529193,
    "OS Y": 183359,
    "Latitude": 51.5343622173569,
    "Longitude": -0.138744349838543,
    "Zone": 2,
    "Postcode": "NW1 2JA"
  },
  {
    "Station": "Mortlake",
    "OS X": 520458,
    "OS Y": 175779,
    "Latitude": 51.468167936091,
    "Longitude": -0.267203313914429,
    "Zone": 3,
    "Postcode": "SW14 8LN"
  },
  {
    "Station": "Motspur Park",
    "OS X": 522581,
    "OS Y": 167724,
    "Latitude": 51.3953196266089,
    "Longitude": -0.239439745975172,
    "Zone": 4,
    "Postcode": "KT3 6JJ"
  },
  {
    "Station": "Mottingham",
    "OS X": 542600,
    "OS Y": 173197,
    "Latitude": 51.439824976607,
    "Longitude": 0.0503242021767052,
    "Zone": 4,
    "Postcode": "SE9 4EN"
  },
  {
    "Station": "Mudchute",
    "OS X": 537908,
    "OS Y": 178789,
    "Latitude": 51.4912361853377,
    "Longitude": -0.0149599448927628,
    "Zone": 2,
    "Postcode": "E14 9UW"
  },
  {
    "Station": "Neasden",
    "OS X": 521415,
    "OS Y": 185422,
    "Latitude": 51.5546277170065,
    "Longitude": -0.250115045332305,
    "Zone": 3,
    "Postcode": "NW10 1PH"
  },
  {
    "Station": "New Addington",
    "OS X": 538187,
    "OS Y": 162255,
    "Latitude": 51.3425905089639,
    "Longitude": -0.0173833270853994,
    "Zone": "3,4,5,6",
    "Postcode": "CR0 0DE"
  },
  {
    "Station": "New Barnet",
    "OS X": 526502,
    "OS Y": 195996,
    "Latitude": 51.6485367698006,
    "Longitude": -0.172969714019881,
    "Zone": 5,
    "Postcode": "EN5 1QT"
  },
  {
    "Station": "New Beckenham",
    "OS X": 536718,
    "OS Y": 170463,
    "Latitude": 51.416705548656,
    "Longitude": -0.0353049493204362,
    "Zone": 4,
    "Postcode": "BR3 1QW"
  },
  {
    "Station": "New Cross",
    "OS X": 536750,
    "OS Y": 177110,
    "Latitude": 51.4764294151816,
    "Longitude": -0.0322788115029916,
    "Zone": 2,
    "Postcode": "SE14 6LD"
  },
  {
    "Station": "New Cross Gate",
    "OS X": 536250,
    "OS Y": 176967,
    "Latitude": 51.4752649281612,
    "Longitude": -0.0395290519360524,
    "Zone": 2,
    "Postcode": "SE14 6AR"
  },
  {
    "Station": "New Eltham",
    "OS X": 544005,
    "OS Y": 172999,
    "Latitude": 51.4376906601877,
    "Longitude": 0.0704446183922663,
    "Zone": 4,
    "Postcode": "SE9 2AB"
  },
  {
    "Station": "New Malden",
    "OS X": 521392,
    "OS Y": 168612,
    "Latitude": 51.4035559067229,
    "Longitude": -0.256218106160674,
    "Zone": 4,
    "Postcode": "KT3 4PX"
  },
  {
    "Station": "New Southgate",
    "OS X": 528672,
    "OS Y": 192218,
    "Latitude": 51.6140936665749,
    "Longitude": -0.143009776041921,
    "Zone": 4,
    "Postcode": "N11 1QH"
  },
  {
    "Station": "Newbury Park",
    "OS X": 544947,
    "OS Y": 188378,
    "Latitude": 51.5756383559361,
    "Longitude": 0.090303157711892,
    "Zone": 4,
    "Postcode": "IG2 7RN"
  },
  {
    "Station": "Norbiton",
    "OS X": 519424,
    "OS Y": 169495,
    "Latitude": 51.4119093510218,
    "Longitude": -0.284199947894883,
    "Zone": 5,
    "Postcode": "KT2 7AZ"
  },
  {
    "Station": "Norbury",
    "OS X": 530650,
    "OS Y": 169690,
    "Latitude": 51.4111885028721,
    "Longitude": -0.1227994018447,
    "Zone": 3,
    "Postcode": "SW16 3RW"
  },
  {
    "Station": "North Acton",
    "OS X": 520831,
    "OS Y": 181937,
    "Latitude": 51.5234324274314,
    "Longitude": -0.259729527847009,
    "Zone": "2,3",
    "Postcode": "W3 6UP"
  },
  {
    "Station": "North Dulwich",
    "OS X": 532950,
    "OS Y": 174567,
    "Latitude": 51.4544818086691,
    "Longitude": -0.0879186807179378,
    "Zone": "2,3",
    "Postcode": "SE21 7BX"
  },
  {
    "Station": "North Ealing",
    "OS X": 518816,
    "OS Y": 181243,
    "Latitude": 51.5176222888529,
    "Longitude": -0.288993552615282,
    "Zone": 3,
    "Postcode": "W5 3AF"
  },
  {
    "Station": "North Greenwich",
    "OS X": 539168,
    "OS Y": 179827,
    "Latitude": 51.5002551525582,
    "Longitude": 0.00358625912485761,
    "Zone": "2,3",
    "Postcode": "SE10 0PH"
  },
  {
    "Station": "North Harrow",
    "OS X": 513540,
    "OS Y": 188578,
    "Latitude": 51.5846312989274,
    "Longitude": -0.362632993263413,
    "Zone": 5,
    "Postcode": "HA2 7SR"
  },
  {
    "Station": "North Sheen",
    "OS X": 519132,
    "OS Y": 175442,
    "Latitude": 51.4654196112512,
    "Longitude": -0.286397466744351,
    "Zone": 3,
    "Postcode": "TW9 4QA"
  },
  {
    "Station": "North Wembley",
    "OS X": 517663,
    "OS Y": 186198,
    "Latitude": 51.5623962915381,
    "Longitude": -0.30394821929308,
    "Zone": 4,
    "Postcode": "HA0 3NT"
  },
  {
    "Station": "Northfields",
    "OS X": 517051,
    "OS Y": 179296,
    "Latitude": 51.5004916704598,
    "Longitude": -0.315064818770216,
    "Zone": 3,
    "Postcode": "W13 9QU"
  },
  {
    "Station": "Northolt",
    "OS X": 513228,
    "OS Y": 184519,
    "Latitude": 51.548212900955,
    "Longitude": -0.368440595510011,
    "Zone": 5,
    "Postcode": "UB5 4AA"
  },
  {
    "Station": "Northolt Park",
    "OS X": 513829,
    "OS Y": 185579,
    "Latitude": 51.5576190512839,
    "Longitude": -0.359434196382601,
    "Zone": 5,
    "Postcode": "UB5 4XE"
  },
  {
    "Station": "Northwick Park",
    "OS X": 516634,
    "OS Y": 187967,
    "Latitude": 51.5785086880148,
    "Longitude": -0.318199391910867,
    "Zone": 4,
    "Postcode": "HA3 0AT"
  },
  {
    "Station": "Northwood",
    "OS X": 509236,
    "OS Y": 191441,
    "Latitude": 51.611213610715,
    "Longitude": -0.423837786672373,
    "Zone": 6,
    "Postcode": "HA6 2XL"
  },
  {
    "Station": "Northwood Hills",
    "OS X": 510267,
    "OS Y": 190305,
    "Latitude": 51.6008026453293,
    "Longitude": -0.409311357826304,
    "Zone": 6,
    "Postcode": "HA6 1NZ"
  },
  {
    "Station": "Norwood Junction",
    "OS X": 534001,
    "OS Y": 168193,
    "Latitude": 51.3969543221338,
    "Longitude": -0.0752098565302298,
    "Zone": 4,
    "Postcode": "SE25 5AG"
  },
  {
    "Station": "Notting Hill Gate",
    "OS X": 525296,
    "OS Y": 180481,
    "Latitude": 51.5093753363454,
    "Longitude": -0.195921618455085,
    "Zone": "1,2",
    "Postcode": "W11 3HT"
  },
  {
    "Station": "Nunhead",
    "OS X": 535293,
    "OS Y": 175975,
    "Latitude": 51.4665799841859,
    "Longitude": -0.0536797426440658,
    "Zone": 2,
    "Postcode": "SE15 3XE"
  },
  {
    "Station": "Oakleigh Park",
    "OS X": 527001,
    "OS Y": 194800,
    "Latitude": 51.6376763630458,
    "Longitude": -0.166194966595086,
    "Zone": 4,
    "Postcode": "EN5 1BU"
  },
  {
    "Station": "Oakwood",
    "OS X": 529349,
    "OS Y": 195968,
    "Latitude": 51.6476379604749,
    "Longitude": -0.131853539818674,
    "Zone": 5,
    "Postcode": "N14 4UT"
  },
  {
    "Station": "Ockendon",
    "OS X": 559004,
    "OS Y": 182828,
    "Latitude": 51.5219896452329,
    "Longitude": 0.290483475055789,
    "Zone": 7,
    "Postcode": "RM15 6PD"
  },
  {
    "Station": "Old Street",
    "OS X": 532764,
    "OS Y": 182474,
    "Latitude": 51.525581471626,
    "Longitude": -0.0876229578285339,
    "Zone": 1,
    "Postcode": "EC1V 9NR"
  },
  {
    "Station": "Orpington",
    "OS X": 545500,
    "OS Y": 165900,
    "Latitude": 51.3735200472526,
    "Longitude": 0.0890289014663727,
    "Zone": 6,
    "Postcode": "BR6 0SX"
  },
  {
    "Station": "Osterley",
    "OS X": 514529,
    "OS Y": 177094,
    "Latitude": 51.4812168100862,
    "Longitude": -0.352096096073539,
    "Zone": 4,
    "Postcode": "TW7 4PU"
  },
  {
    "Station": "Oval",
    "OS X": 531108,
    "OS Y": 177516,
    "Latitude": 51.4814126004267,
    "Longitude": -0.11332107586241,
    "Zone": 2,
    "Postcode": "SE11 4PP"
  },
  {
    "Station": "Oxford Circus",
    "OS X": 529102,
    "OS Y": 181227,
    "Latitude": 51.5152234024753,
    "Longitude": -0.140836171281216,
    "Zone": 1,
    "Postcode": "W1C 2JS"
  },
  {
    "Station": "Paddington",
    "OS X": 526680,
    "OS Y": 181185,
    "Latitude": 51.5153937854761,
    "Longitude": -0.17573675205718,
    "Zone": 1,
    "Postcode": "W2 1RH"
  },
  {
    "Station": "Palmers Green",
    "OS X": 530925,
    "OS Y": 192798,
    "Latitude": 51.6187867479936,
    "Longitude": -0.110272500024408,
    "Zone": 4,
    "Postcode": "N13 4PN"
  },
  {
    "Station": "Park Royal",
    "OS X": 519074,
    "OS Y": 182274,
    "Latitude": 51.5268340201739,
    "Longitude": -0.284928917693023,
    "Zone": 3,
    "Postcode": "W5 3EL"
  },
  {
    "Station": "Parsons Green",
    "OS X": 525029,
    "OS Y": 176645,
    "Latitude": 51.4749601526113,
    "Longitude": -0.201124492361412,
    "Zone": 2,
    "Postcode": "SW6 4HU"
  },
  {
    "Station": "Peckham Rye",
    "OS X": 534152,
    "OS Y": 176271,
    "Latitude": 51.4695113647382,
    "Longitude": -0.0699835531862991,
    "Zone": 2,
    "Postcode": "SE15 5DQ"
  },
  {
    "Station": "Penge East",
    "OS X": 535374,
    "OS Y": 170791,
    "Latitude": 51.4199753489725,
    "Longitude": -0.0544952648066812,
    "Zone": 4,
    "Postcode": "SE20 7BQ"
  },
  {
    "Station": "Penge West",
    "OS X": 534952,
    "OS Y": 170567,
    "Latitude": 51.4180629281155,
    "Longitude": -0.0606457645522225,
    "Zone": 4,
    "Postcode": "SE20 8NU"
  },
  {
    "Station": "Perivale",
    "OS X": 516404,
    "OS Y": 183270,
    "Latitude": 51.5363418211961,
    "Longitude": -0.323070421981107,
    "Zone": 4,
    "Postcode": "UB6 7NP"
  },
  {
    "Station": "Petts Wood",
    "OS X": 544440,
    "OS Y": 167548,
    "Latitude": 51.3885989909001,
    "Longitude": 0.074480029768347,
    "Zone": 5,
    "Postcode": "BR5 1LZ"
  },
  {
    "Station": "Phipps Bridge",
    "OS X": 526534,
    "OS Y": 168717,
    "Latitude": 51.4033767278033,
    "Longitude": -0.182296788876552,
    "Zone": "3,4,5,6",
    "Postcode": "CR4 3QN"
  },
  {
    "Station": "Piccadilly Circus",
    "OS X": 529612,
    "OS Y": 180625,
    "Latitude": 51.5096967485824,
    "Longitude": -0.133711597193113,
    "Zone": 1,
    "Postcode": "W1J 9HS"
  },
  {
    "Station": "Pimlico",
    "OS X": 529711,
    "OS Y": 178386,
    "Latitude": 51.4895528621095,
    "Longitude": -0.13310825841606,
    "Zone": 1,
    "Postcode": "SW1V 2JA"
  },
  {
    "Station": "Pinner",
    "OS X": 512233,
    "OS Y": 189409,
    "Latitude": 51.5923616780875,
    "Longitude": -0.38122379020978,
    "Zone": 5,
    "Postcode": "HA5 5LZ"
  },
  {
    "Station": "Plaistow",
    "OS X": 540058,
    "OS Y": 183305,
    "Latitude": 51.5312883350351,
    "Longitude": 0.0177806419767876,
    "Zone": 3,
    "Postcode": "E13 0DY"
  },
  {
    "Station": "Plumstead",
    "OS X": 544803,
    "OS Y": 178820,
    "Latitude": 51.4897924244717,
    "Longitude": 0.0842996165468695,
    "Zone": 4,
    "Postcode": "SE18 7EA"
  },
  {
    "Station": "Ponders End",
    "OS X": 536097,
    "OS Y": 195599,
    "Latitude": 51.64273069128,
    "Longitude": -0.0345251045263664,
    "Zone": 5,
    "Postcode": "EN3 4LA"
  },
  {
    "Station": "Pontoon Dock",
    "OS X": 541226,
    "OS Y": 180102,
    "Latitude": 51.5022162156561,
    "Longitude": 0.0333257074807419,
    "Zone": 3,
    "Postcode": "E16 2SB"
  },
  {
    "Station": "Poplar",
    "OS X": 537698,
    "OS Y": 180603,
    "Latitude": 51.507588070486,
    "Longitude": -0.0172754933083506,
    "Zone": 2,
    "Postcode": "E14 0DS"
  },
  {
    "Station": "Preston Road",
    "OS X": 518260,
    "OS Y": 187292,
    "Latitude": 51.5721037281558,
    "Longitude": -0.294972012548964,
    "Zone": 4,
    "Postcode": "HA3 0PS"
  },
  {
    "Station": "Prince Regent",
    "OS X": 541215,
    "OS Y": 180905,
    "Latitude": 51.509434549718,
    "Longitude": 0.0334885740458409,
    "Zone": 3,
    "Postcode": "E16 3HE"
  },
  {
    "Station": "Pudding Mill Lane",
    "OS X": 537930,
    "OS Y": 183585,
    "Latitude": 51.534327854309,
    "Longitude": -0.0127685119528796,
    "Zone": "2,3",
    "Postcode": "E15 2PH"
  },
  {
    "Station": "Purfleet",
    "OS X": 555417,
    "OS Y": 178174,
    "Latitude": 51.4811730060298,
    "Longitude": 0.236774835792541,
    "Zone": 7,
    "Postcode": "RM16 1PL"
  },
  {
    "Station": "Purley",
    "OS X": 531500,
    "OS Y": 161497,
    "Latitude": 51.3373635541226,
    "Longitude": -0.113613517836059,
    "Zone": 6,
    "Postcode": "CR8 2AP"
  },
  {
    "Station": "Purley Oaks",
    "OS X": 532503,
    "OS Y": 162594,
    "Latitude": 51.3469893399568,
    "Longitude": -0.0988153330628922,
    "Zone": 6,
    "Postcode": "CR2 0ND"
  },
  {
    "Station": "Putney",
    "OS X": 523992,
    "OS Y": 175061,
    "Latitude": 51.4609525305127,
    "Longitude": -0.216603373518713,
    "Zone": "2,3",
    "Postcode": "SW15 1RT"
  },
  {
    "Station": "Putney Bridge",
    "OS X": 524476,
    "OS Y": 175842,
    "Latitude": 51.4678653375334,
    "Longitude": -0.209365416848384,
    "Zone": 2,
    "Postcode": "SW6 3UH"
  },
  {
    "Station": "Queens Park",
    "OS X": 524612,
    "OS Y": 183239,
    "Latitude": 51.5343126505701,
    "Longitude": -0.204798149386757,
    "Zone": 2,
    "Postcode": "NW6 6HJ"
  },
  {
    "Station": "Queens Road Peckham",
    "OS X": 535015,
    "OS Y": 176825,
    "Latitude": 51.4742847092653,
    "Longitude": -0.057354978856183,
    "Zone": 2,
    "Postcode": "SE15 2JR"
  },
  {
    "Station": "Queensbury",
    "OS X": 518802,
    "OS Y": 189728,
    "Latitude": 51.5938829754361,
    "Longitude": -0.286331597393279,
    "Zone": 4,
    "Postcode": "HA8 5NP"
  },
  {
    "Station": "Queenstown Road",
    "OS X": 528763,
    "OS Y": 176738,
    "Latitude": 51.4749591271495,
    "Longitude": -0.147355312102418,
    "Zone": 2,
    "Postcode": "SW8 3RX"
  },
  {
    "Station": "Queensway",
    "OS X": 525883,
    "OS Y": 180615,
    "Latitude": 51.5104492329499,
    "Longitude": -0.187419903087067,
    "Zone": 1,
    "Postcode": "W2 4SS"
  },
  {
    "Station": "Radlett",
    "OS X": 516375,
    "OS Y": 199856,
    "Latitude": 51.6854132716598,
    "Longitude": -0.317987633655748,
    "Zone": 0,
    "Postcode": "WD7 7AP"
  },
  {
    "Station": "Rainham",
    "OS X": 552097,
    "OS Y": 182099,
    "Latitude": 51.5173405152786,
    "Longitude": 0.19069197549114,
    "Zone": 6,
    "Postcode": "RM13 9YH"
  },
  {
    "Station": "Ravensbourne",
    "OS X": 538699,
    "OS Y": 170201,
    "Latitude": 51.4138703786316,
    "Longitude": -0.00693781553200695,
    "Zone": 4,
    "Postcode": "BR3 5HE"
  },
  {
    "Station": "Ravenscourt Park",
    "OS X": 522558,
    "OS Y": 178711,
    "Latitude": 51.4940679805396,
    "Longitude": -0.235969233097656,
    "Zone": 2,
    "Postcode": "W6 0UG"
  },
  {
    "Station": "Rayners Lane",
    "OS X": 512979,
    "OS Y": 187538,
    "Latitude": 51.5753967323171,
    "Longitude": -0.371060813774267,
    "Zone": 5,
    "Postcode": "HA5 5EG"
  },
  {
    "Station": "Raynes Park",
    "OS X": 523206,
    "OS Y": 169303,
    "Latitude": 51.4093753455167,
    "Longitude": -0.229912939347557,
    "Zone": 4,
    "Postcode": "SW20 8NE"
  },
  {
    "Station": "Rectory Road",
    "OS X": 534001,
    "OS Y": 186199,
    "Latitude": 51.5587634766966,
    "Longitude": -0.0683856647215925,
    "Zone": 2,
    "Postcode": "N16 7QB"
  },
  {
    "Station": "Redbridge",
    "OS X": 541833,
    "OS Y": 188371,
    "Latitude": 51.5763669173707,
    "Longitude": 0.0453940439621216,
    "Zone": 4,
    "Postcode": "IG4 5BG"
  },
  {
    "Station": "Reedham",
    "OS X": 530835,
    "OS Y": 160821,
    "Latitude": 51.3314417130642,
    "Longitude": -0.12340262441461,
    "Zone": 6,
    "Postcode": "CR8 2DG"
  },
  {
    "Station": "Reeves Corner",
    "OS X": 531895,
    "OS Y": 165726,
    "Latitude": 51.3752772004597,
    "Longitude": -0.10637977823085,
    "Zone": "3,4,5,6",
    "Postcode": "CR0 1XP"
  },
  {
    "Station": "Regents Park",
    "OS X": 528765,
    "OS Y": 182174,
    "Latitude": 51.523810673215,
    "Longitude": -0.145344410943574,
    "Zone": 1,
    "Postcode": "NW1 5HA"
  },
  {
    "Station": "Richmond",
    "OS X": 518072,
    "OS Y": 175174,
    "Latitude": 51.4632328858425,
    "Longitude": -0.301739134006667,
    "Zone": 4,
    "Postcode": "TW9 2AZ"
  },
  {
    "Station": "Rickmansworth",
    "OS X": 505717,
    "OS Y": 194605,
    "Latitude": 51.6403230144667,
    "Longitude": -0.473684584103803,
    "Zone": 7,
    "Postcode": "WD3 1QY"
  },
  {
    "Station": "Riddlesdown",
    "OS X": 532497,
    "OS Y": 161001,
    "Latitude": 51.3326748309249,
    "Longitude": -0.0994936674782967,
    "Zone": 6,
    "Postcode": "CR8 1HN"
  },
  {
    "Station": "Roding Valley",
    "OS X": 541612,
    "OS Y": 192882,
    "Latitude": 51.6169564460846,
    "Longitude": 0.0440262070089692,
    "Zone": 4,
    "Postcode": "IG9 6LN"
  },
  {
    "Station": "Romford",
    "OS X": 551377,
    "OS Y": 188455,
    "Latitude": 51.5746415918762,
    "Longitude": 0.183055272296591,
    "Zone": 6,
    "Postcode": "RM1 1SX"
  },
  {
    "Station": "Rotherhithe",
    "OS X": 535239,
    "OS Y": 179870,
    "Latitude": 51.5015945048312,
    "Longitude": -0.0529662964141603,
    "Zone": 2,
    "Postcode": "SE16 4LF"
  },
  {
    "Station": "Royal Albert",
    "OS X": 542029,
    "OS Y": 180823,
    "Latitude": 51.5084938696371,
    "Longitude": 0.0451771450658638,
    "Zone": 3,
    "Postcode": "E16 2QD"
  },
  {
    "Station": "Royal Oak",
    "OS X": 525764,
    "OS Y": 181485,
    "Latitude": 51.5182943526052,
    "Longitude": -0.188823673616337,
    "Zone": 2,
    "Postcode": "W2 6ET"
  },
  {
    "Station": "Royal Victoria",
    "OS X": 540139,
    "OS Y": 180833,
    "Latitude": 51.5090552350648,
    "Longitude": 0.017965412568385,
    "Zone": 3,
    "Postcode": "E16 1DE"
  },
  {
    "Station": "Ruislip",
    "OS X": 509510,
    "OS Y": 187102,
    "Latitude": 51.5721619209745,
    "Longitude": -0.421234925940202,
    "Zone": 6,
    "Postcode": "HA4 8LD"
  },
  {
    "Station": "Ruislip Gardens",
    "OS X": 510367,
    "OS Y": 185763,
    "Latitude": 51.5599601781373,
    "Longitude": -0.409294111142661,
    "Zone": 5,
    "Postcode": "HA4 6LG"
  },
  {
    "Station": "Ruislip Manor",
    "OS X": 510088,
    "OS Y": 187258,
    "Latitude": 51.5734515745101,
    "Longitude": -0.412849354371243,
    "Zone": 6,
    "Postcode": "HA4 9AA"
  },
  {
    "Station": "Russell Square",
    "OS X": 530207,
    "OS Y": 182122,
    "Latitude": 51.5230130380911,
    "Longitude": -0.12459019776958,
    "Zone": 1,
    "Postcode": "WC1N 1LG"
  },
  {
    "Station": "Sanderstead",
    "OS X": 532855,
    "OS Y": 162743,
    "Latitude": 51.3482462536541,
    "Longitude": -0.093708500054184,
    "Zone": 6,
    "Postcode": "CR2 0PL"
  },
  {
    "Station": "Sandilands",
    "OS X": 533869,
    "OS Y": 165749,
    "Latitude": 51.3750222721497,
    "Longitude": -0.0780265897730704,
    "Zone": "3,4,5,6",
    "Postcode": "CR0 5PN"
  },
  {
    "Station": "Selhurst",
    "OS X": 532993,
    "OS Y": 167636,
    "Latitude": 51.3921857699136,
    "Longitude": -0.0898990370877537,
    "Zone": 4,
    "Postcode": "SE25 6LL"
  },
  {
    "Station": "Seven Kings",
    "OS X": 545401,
    "OS Y": 187095,
    "Latitude": 51.5639933517618,
    "Longitude": 0.0963195747390778,
    "Zone": 4,
    "Postcode": "IG3 8RE"
  },
  {
    "Station": "Seven Sisters",
    "OS X": 533646,
    "OS Y": 188927,
    "Latitude": 51.5833621599912,
    "Longitude": -0.0724668228194505,
    "Zone": 3,
    "Postcode": "N15 5LA"
  },
  {
    "Station": "Shadwell",
    "OS X": 534936,
    "OS Y": 180942,
    "Latitude": 51.5113001552667,
    "Longitude": -0.0569192071261326,
    "Zone": 2,
    "Postcode": "E1 2QE"
  },
  {
    "Station": "Shenfield",
    "OS X": 561356,
    "OS Y": 195022,
    "Latitude": 51.6308730972021,
    "Longitude": 0.329952264360176,
    "Zone": 7,
    "Postcode": "CM15 8JD"
  },
  {
    "Station": "Shepherds Bush",
    "OS X": 523741,
    "OS Y": 179904,
    "Latitude": 51.5045321509841,
    "Longitude": -0.218519159443698,
    "Zone": 2,
    "Postcode": "W12 8LH"
  },
  {
    "Station": "Shepherds Bush Market",
    "OS X": 523121,
    "OS Y": 180039,
    "Latitude": 51.5058807081072,
    "Longitude": -0.227400493416075,
    "Zone": 2,
    "Postcode": "W12 7JD"
  },
  {
    "Station": "Shoreditch High Street",
    "OS X": 533501,
    "OS Y": 182258,
    "Latitude": 51.5234668189696,
    "Longitude": -0.0770874246719852,
    "Zone": 1,
    "Postcode": "E1 6AW"
  },
  {
    "Station": "Shortlands",
    "OS X": 539399,
    "OS Y": 169300,
    "Latitude": 51.4056023667952,
    "Longitude": 0.00276754438906633,
    "Zone": 4,
    "Postcode": "BR2 0JA"
  },
  {
    "Station": "Sidcup",
    "OS X": 546300,
    "OS Y": 172698,
    "Latitude": 51.434398457571,
    "Longitude": 0.103315359084748,
    "Zone": 5,
    "Postcode": "DA15 7AW"
  },
  {
    "Station": "Silver Street",
    "OS X": 533544,
    "OS Y": 192472,
    "Latitude": 51.6152424779722,
    "Longitude": -0.0725897415602479,
    "Zone": 4,
    "Postcode": "N18 1QX"
  },
  {
    "Station": "Slade Green",
    "OS X": 552250,
    "OS Y": 176584,
    "Latitude": 51.4677476551531,
    "Longitude": 0.190518387554055,
    "Zone": 6,
    "Postcode": "DA8 2NX"
  },
  {
    "Station": "Sloane Square",
    "OS X": 528080,
    "OS Y": 178657,
    "Latitude": 51.4923597642465,
    "Longitude": -0.156488857475889,
    "Zone": 1,
    "Postcode": "SW1W 8BB"
  },
  {
    "Station": "Smitham",
    "OS X": 530098,
    "OS Y": 159802,
    "Latitude": 51.322452953248,
    "Longitude": -0.134347057284217,
    "Zone": 6,
    "Postcode": "CR5 2JA"
  },
  {
    "Station": "Snaresbrook",
    "OS X": 540161,
    "OS Y": 188828,
    "Latitude": 51.5808912737665,
    "Longitude": 0.0214639277817424,
    "Zone": 4,
    "Postcode": "E11 1QE"
  },
  {
    "Station": "South Acton",
    "OS X": 520166,
    "OS Y": 179279,
    "Latitude": 51.4996858283591,
    "Longitude": -0.270215207515349,
    "Zone": 3,
    "Postcode": "W3 0DS"
  },
  {
    "Station": "South Bermondsey",
    "OS X": 535156,
    "OS Y": 178319,
    "Latitude": 51.487676615354,
    "Longitude": -0.0547548212374044,
    "Zone": 2,
    "Postcode": "SE16 2PL"
  },
  {
    "Station": "South Croydon",
    "OS X": 532896,
    "OS Y": 164358,
    "Latitude": 51.3627501979834,
    "Longitude": -0.0925173632865502,
    "Zone": 5,
    "Postcode": "CR2 7PA"
  },
  {
    "Station": "South Ealing",
    "OS X": 517605,
    "OS Y": 179437,
    "Latitude": 51.5016440207428,
    "Longitude": -0.307040244951366,
    "Zone": 3,
    "Postcode": "W5 4QB"
  },
  {
    "Station": "South Hampstead",
    "OS X": 526425,
    "OS Y": 184081,
    "Latitude": 51.5414768475966,
    "Longitude": -0.178371199960387,
    "Zone": 2,
    "Postcode": "NW8 0DJ"
  },
  {
    "Station": "South Harrow",
    "OS X": 514334,
    "OS Y": 186376,
    "Latitude": 51.5646801684189,
    "Longitude": -0.351893970947759,
    "Zone": 5,
    "Postcode": "HA2 8HN"
  },
  {
    "Station": "South Kensington",
    "OS X": 526865,
    "OS Y": 178817,
    "Latitude": 51.4940713655842,
    "Longitude": -0.173923023092099,
    "Zone": 1,
    "Postcode": "SW7 2NB"
  },
  {
    "Station": "South Kenton",
    "OS X": 517350,
    "OS Y": 187153,
    "Latitude": 51.5710444494788,
    "Longitude": -0.308142977291795,
    "Zone": 4,
    "Postcode": "HA9 8QT"
  },
  {
    "Station": "South Merton",
    "OS X": 524917,
    "OS Y": 168662,
    "Latitude": 51.4032405551849,
    "Longitude": -0.205550301341164,
    "Zone": 4,
    "Postcode": "SW20 9JT"
  },
  {
    "Station": "South Quay",
    "OS X": 537636,
    "OS Y": 179853,
    "Latitude": 51.5008636064987,
    "Longitude": -0.0184606926832228,
    "Zone": 2,
    "Postcode": "E14 9SH"
  },
  {
    "Station": "South Ruislip",
    "OS X": 511080,
    "OS Y": 185437,
    "Latitude": 51.5568903024427,
    "Longitude": -0.399115910294711,
    "Zone": 5,
    "Postcode": "HA4 6TP"
  },
  {
    "Station": "South Tottenham",
    "OS X": 533697,
    "OS Y": 188599,
    "Latitude": 51.5804025862268,
    "Longitude": -0.0718559566013612,
    "Zone": 3,
    "Postcode": "N15 6ND"
  },
  {
    "Station": "South Wimbledon",
    "OS X": 525828,
    "OS Y": 170033,
    "Latitude": 51.4153607099116,
    "Longitude": -0.191974546238533,
    "Zone": "3,4",
    "Postcode": "SW19 1DE"
  },
  {
    "Station": "South Woodford",
    "OS X": 540577,
    "OS Y": 190026,
    "Latitude": 51.5915526163454,
    "Longitude": 0.027943078326039,
    "Zone": 4,
    "Postcode": "E18 1JJ"
  },
  {
    "Station": "Southall",
    "OS X": 512620,
    "OS Y": 179804,
    "Latitude": 51.5059569116018,
    "Longitude": -0.378711189802266,
    "Zone": 4,
    "Postcode": "UB2 4AA"
  },
  {
    "Station": "Southbury",
    "OS X": 534803,
    "OS Y": 196199,
    "Latitude": 51.6484337253443,
    "Longitude": -0.0529833105595679,
    "Zone": 5,
    "Postcode": "EN3 4HW"
  },
  {
    "Station": "Southfields",
    "OS X": 524730,
    "OS Y": 173291,
    "Latitude": 51.4448833134345,
    "Longitude": -0.206609385570515,
    "Zone": 3,
    "Postcode": "SW18 5RJ"
  },
  {
    "Station": "Southgate",
    "OS X": 529675,
    "OS Y": 194278,
    "Latitude": 51.6323758481904,
    "Longitude": -0.127770047251446,
    "Zone": 4,
    "Postcode": "N14 5BH"
  },
  {
    "Station": "Southwark",
    "OS X": 531566,
    "OS Y": 180025,
    "Latitude": 51.5038536204048,
    "Longitude": -0.105794939570331,
    "Zone": 1,
    "Postcode": "SE1 8NW"
  },
  {
    "Station": "St Helier",
    "OS X": 525408,
    "OS Y": 167191,
    "Latitude": 51.3899121636438,
    "Longitude": -0.199014591955063,
    "Zone": 4,
    "Postcode": "SM4 6SF"
  },
  {
    "Station": "St James Street",
    "OS X": 536402,
    "OS Y": 188694,
    "Latitude": 51.5806086640813,
    "Longitude": -0.0328045617393515,
    "Zone": 3,
    "Postcode": "E17 7PJ"
  },
  {
    "Station": "St Johns",
    "OS X": 537400,
    "OS Y": 176298,
    "Latitude": 51.4689752947396,
    "Longitude": -0.0232406618355604,
    "Zone": 2,
    "Postcode": "SE8 4EW"
  },
  {
    "Station": "St Margarets",
    "OS X": 516732,
    "OS Y": 174250,
    "Latitude": 51.4552059913457,
    "Longitude": -0.321324247881547,
    "Zone": 4,
    "Postcode": "TW1 2LH"
  },
  {
    "Station": "St Mary Cray",
    "OS X": 546698,
    "OS Y": 168298,
    "Latitude": 51.3947594079163,
    "Longitude": 0.107217899555122,
    "Zone": 6,
    "Postcode": "BR5 3SN"
  },
  {
    "Station": "St Pancras",
    "OS X": 530122,
    "OS Y": 182959,
    "Latitude": 51.5305544016814,
    "Longitude": -0.12550578197006,
    "Zone": 1,
    "Postcode": "NW1 2QP"
  },
  {
    "Station": "St. James's Park",
    "OS X": 529629,
    "OS Y": 179503,
    "Latitude": 51.4996097944303,
    "Longitude": -0.133878755377767,
    "Zone": 1,
    "Postcode": "SW1H 0BD"
  },
  {
    "Station": "St. Johns Wood",
    "OS X": 526742,
    "OS Y": 183352,
    "Latitude": 51.5348544108574,
    "Longitude": -0.174064840419389,
    "Zone": 2,
    "Postcode": "NW8 6DN"
  },
  {
    "Station": "St. Pauls",
    "OS X": 532105,
    "OS Y": 181261,
    "Latitude": 51.5148352959337,
    "Longitude": -0.0975710006650858,
    "Zone": 1,
    "Postcode": "EC2V 6AA"
  },
  {
    "Station": "Stamford Brook",
    "OS X": 521913,
    "OS Y": 178738,
    "Latitude": 51.4944499677626,
    "Longitude": -0.245246309525915,
    "Zone": 2,
    "Postcode": "W6 0SB"
  },
  {
    "Station": "Stamford Hill",
    "OS X": 533381,
    "OS Y": 187928,
    "Latitude": 51.5744476037189,
    "Longitude": -0.0766683419097026,
    "Zone": 3,
    "Postcode": "N16 5AG"
  },
  {
    "Station": "Stanmore",
    "OS X": 517574,
    "OS Y": 192569,
    "Latitude": 51.6196734439499,
    "Longitude": -0.303099292944956,
    "Zone": 5,
    "Postcode": "HA7 4PD"
  },
  {
    "Station": "Star Lane",
    "OS X": 539148,
    "OS Y": 182091,
    "Latitude": 51.5206042511229,
    "Longitude": 0.00419100262681453,
    "Zone": 3,
    "Postcode": "E16 4SR"
  },
  {
    "Station": "Stepney Green",
    "OS X": 535566,
    "OS Y": 182149,
    "Latitude": 51.5219958335811,
    "Longitude": -0.0473825233217984,
    "Zone": 2,
    "Postcode": "E1 4AQ"
  },
  {
    "Station": "Stockwell",
    "OS X": 530473,
    "OS Y": 176470,
    "Latitude": 51.4721592557897,
    "Longitude": -0.122846304228405,
    "Zone": 2,
    "Postcode": "SW9 9AE"
  },
  {
    "Station": "Stoke Newington",
    "OS X": 533710,
    "OS Y": 186845,
    "Latitude": 51.5646376099448,
    "Longitude": -0.0723353946781513,
    "Zone": 2,
    "Postcode": "N16 6YA"
  },
  {
    "Station": "Stonebridge Park",
    "OS X": 519690,
    "OS Y": 184197,
    "Latitude": 51.5439865540715,
    "Longitude": -0.275400441518915,
    "Zone": 3,
    "Postcode": "NW10 0RW"
  },
  {
    "Station": "Stoneleigh",
    "OS X": 522021,
    "OS Y": 164155,
    "Latitude": 51.3633640523036,
    "Longitude": -0.24870965707129,
    "Zone": 5,
    "Postcode": "KT17 2JA"
  },
  {
    "Station": "Stratford",
    "OS X": 538533,
    "OS Y": 184421,
    "Latitude": 51.5416925793617,
    "Longitude": -0.00375164102765845,
    "Zone": 3,
    "Postcode": "E15 1AZ"
  },
  {
    "Station": "Stratford High Street",
    "OS X": 538729,
    "OS Y": 184032,
    "Latitude": 51.538148951559,
    "Longitude": -0.00108035600376027,
    "Zone": 3,
    "Postcode": "E15 3PA"
  },
  {
    "Station": "Stratford International",
    "OS X": 538175,
    "OS Y": 184758,
    "Latitude": 51.5448085348083,
    "Longitude": -0.00877843401659567,
    "Zone": 3,
    "Postcode": "E15 2LZ"
  },
  {
    "Station": "Strawberry Hill",
    "OS X": 515500,
    "OS Y": 172502,
    "Latitude": 51.4397478321209,
    "Longitude": -0.339617731106479,
    "Zone": 5,
    "Postcode": "TW1 4PP"
  },
  {
    "Station": "Streatham",
    "OS X": 529946,
    "OS Y": 171303,
    "Latitude": 51.42584586267,
    "Longitude": -0.132325496748753,
    "Zone": 3,
    "Postcode": "SW16 6HP"
  },
  {
    "Station": "Streatham Common",
    "OS X": 529729,
    "OS Y": 170534,
    "Latitude": 51.4189846707873,
    "Longitude": -0.135726165100961,
    "Zone": 3,
    "Postcode": "SW16 5NT"
  },
  {
    "Station": "Streatham Hill",
    "OS X": 530233,
    "OS Y": 172714,
    "Latitude": 51.4384603654093,
    "Longitude": -0.127681481482866,
    "Zone": 3,
    "Postcode": "SW2 4PA"
  },
  {
    "Station": "Sudbury and Harrow Road",
    "OS X": 516853,
    "OS Y": 185300,
    "Latitude": 51.5544937834055,
    "Longitude": -0.315926241750592,
    "Zone": 4,
    "Postcode": "HA0 2HA"
  },
  {
    "Station": "Sudbury Hill",
    "OS X": 515427,
    "OS Y": 185584,
    "Latitude": 51.5573395592764,
    "Longitude": -0.336392115131209,
    "Zone": 4,
    "Postcode": "HA1 3RA"
  },
  {
    "Station": "Sudbury Hill Harrow",
    "OS X": 515490,
    "OS Y": 185697,
    "Latitude": 51.5583422723845,
    "Longitude": -0.335446693118045,
    "Zone": 4,
    "Postcode": "HA1 3RJ"
  },
  {
    "Station": "Sudbury Town",
    "OS X": 516832,
    "OS Y": 184955,
    "Latitude": 51.5513974425485,
    "Longitude": -0.316343485736328,
    "Zone": 4,
    "Postcode": "HA0 2LA"
  },
  {
    "Station": "Sundridge Park",
    "OS X": 540599,
    "OS Y": 170200,
    "Latitude": 51.4133937992276,
    "Longitude": 0.0203651090029858,
    "Zone": 4,
    "Postcode": "BR1 3TR"
  },
  {
    "Station": "Surbiton",
    "OS X": 518070,
    "OS Y": 167315,
    "Latitude": 51.3925995331194,
    "Longitude": -0.304384559830353,
    "Zone": 6,
    "Postcode": "KT6 4PE"
  },
  {
    "Station": "Surrey Quays",
    "OS X": 535641,
    "OS Y": 178954,
    "Latitude": 51.4932668568496,
    "Longitude": -0.0475299876540577,
    "Zone": 2,
    "Postcode": "SE16 2UE"
  },
  {
    "Station": "Sutton",
    "OS X": 526028,
    "OS Y": 163823,
    "Latitude": 51.3595061352235,
    "Longitude": -0.19130201116946,
    "Zone": 5,
    "Postcode": "SM1 1JA"
  },
  {
    "Station": "Sutton Common",
    "OS X": 525593,
    "OS Y": 165598,
    "Latitude": 51.3755546948934,
    "Longitude": -0.196919912385798,
    "Zone": 4,
    "Postcode": "SM1 3HY"
  },
  {
    "Station": "Swiss Cottage",
    "OS X": 526611,
    "OS Y": 184259,
    "Latitude": 51.5430348466642,
    "Longitude": -0.175626604430278,
    "Zone": 2,
    "Postcode": "NW3 6HY"
  },
  {
    "Station": "Sydenham",
    "OS X": 535311,
    "OS Y": 171609,
    "Latitude": 51.42734125177,
    "Longitude": -0.0550886709366784,
    "Zone": 3,
    "Postcode": "SE26 5EU"
  },
  {
    "Station": "Sydenham Hill",
    "OS X": 533548,
    "OS Y": 172145,
    "Latitude": 51.4325758875121,
    "Longitude": -0.0802302078783204,
    "Zone": 3,
    "Postcode": "SE21 7HW"
  },
  {
    "Station": "Syon Lane",
    "OS X": 516306,
    "OS Y": 177163,
    "Latitude": 51.4814746877807,
    "Longitude": -0.326495034576377,
    "Zone": 4,
    "Postcode": "TW7 5NT"
  },
  {
    "Station": "Temple",
    "OS X": 530995,
    "OS Y": 180810,
    "Latitude": 51.5110406072706,
    "Longitude": -0.113725750277665,
    "Zone": 1,
    "Postcode": "WC2R 2PH"
  },
  {
    "Station": "Thornton Heath",
    "OS X": 532242,
    "OS Y": 168317,
    "Latitude": 51.3984810780709,
    "Longitude": -0.100433165116845,
    "Zone": 4,
    "Postcode": "CR7 8RX"
  },
  {
    "Station": "Tolworth",
    "OS X": 519834,
    "OS Y": 165603,
    "Latitude": 51.3768433160348,
    "Longitude": -0.2796201149932,
    "Zone": 5,
    "Postcode": "KT5 9NU"
  },
  {
    "Station": "Tooting",
    "OS X": 527969,
    "OS Y": 170591,
    "Latitude": 51.4198966325446,
    "Longitude": -0.161002472127555,
    "Zone": 3,
    "Postcode": "SW17 9JR"
  },
  {
    "Station": "Tooting Bec",
    "OS X": 528015,
    "OS Y": 172366,
    "Latitude": 51.4358380641067,
    "Longitude": -0.159700492309773,
    "Zone": 3,
    "Postcode": "SW17 9AH"
  },
  {
    "Station": "Tooting Broadway",
    "OS X": 527415,
    "OS Y": 171373,
    "Latitude": 51.4270491448249,
    "Longitude": -0.16868452742757,
    "Zone": 3,
    "Postcode": "SW17 0SU"
  },
  {
    "Station": "Tottenham Court Road",
    "OS X": 529774,
    "OS Y": 181354,
    "Latitude": 51.5162108700746,
    "Longitude": -0.131110438934185,
    "Zone": 1,
    "Postcode": "W1D 2DA"
  },
  {
    "Station": "Tottenham Hale",
    "OS X": 534483,
    "OS Y": 189465,
    "Latitude": 51.5879977781772,
    "Longitude": -0.0601878226919314,
    "Zone": 3,
    "Postcode": "N17 9LR"
  },
  {
    "Station": "Totteridge and Whetstone",
    "OS X": 526111,
    "OS Y": 193951,
    "Latitude": 51.6302467196558,
    "Longitude": -0.179354263099613,
    "Zone": 4,
    "Postcode": "N20 9QP"
  },
  {
    "Station": "Tower Gateway",
    "OS X": 533725,
    "OS Y": 180809,
    "Latitude": 51.5103926423114,
    "Longitude": -0.0744098772286296,
    "Zone": 1,
    "Postcode": "EC3N 1JL"
  },
  {
    "Station": "Tower Hill",
    "OS X": 533566,
    "OS Y": 180805,
    "Latitude": 51.5103942732372,
    "Longitude": -0.0767011984581268,
    "Zone": 1,
    "Postcode": "EC3N 4DJ"
  },
  {
    "Station": "Tufnell Park",
    "OS X": 529200,
    "OS Y": 185816,
    "Latitude": 51.5564407979347,
    "Longitude": -0.137742175150487,
    "Zone": 2,
    "Postcode": "N19 5QB"
  },
  {
    "Station": "Tulse Hill",
    "OS X": 531797,
    "OS Y": 172903,
    "Latitude": 51.4397974275299,
    "Longitude": -0.105122509095841,
    "Zone": 3,
    "Postcode": "SE27 9BW"
  },
  {
    "Station": "Turnham Green",
    "OS X": 521267,
    "OS Y": 178804,
    "Latitude": 51.4951819412486,
    "Longitude": -0.25452456805284,
    "Zone": 2,
    "Postcode": "W4 1LR"
  },
  {
    "Station": "Turnpike Lane",
    "OS X": 531524,
    "OS Y": 189650,
    "Latitude": 51.5903581339156,
    "Longitude": -0.102805041186646,
    "Zone": 3,
    "Postcode": "N15 3NX"
  },
  {
    "Station": "Upney",
    "OS X": 545844,
    "OS Y": 184260,
    "Latitude": 51.538405647702,
    "Longitude": 0.101531744050965,
    "Zone": 4,
    "Postcode": "IG11 9LS"
  },
  {
    "Station": "Upper Holloway",
    "OS X": 529778,
    "OS Y": 186630,
    "Latitude": 51.563623304644,
    "Longitude": -0.129109363657748,
    "Zone": 2,
    "Postcode": "N19 4DJ"
  },
  {
    "Station": "Upton Park",
    "OS X": 541204,
    "OS Y": 183931,
    "Latitude": 51.5366282006416,
    "Longitude": 0.0345418396504738,
    "Zone": 3,
    "Postcode": "E13 9AP"
  },
  {
    "Station": "Vauxhall",
    "OS X": 530366,
    "OS Y": 177978,
    "Latitude": 51.4857358017157,
    "Longitude": -0.123829952856406,
    "Zone": "1,2",
    "Postcode": "SW8 1SR"
  },
  {
    "Station": "Victoria",
    "OS X": 528941,
    "OS Y": 179131,
    "Latitude": 51.4964239527317,
    "Longitude": -0.143920706325316,
    "Zone": 1,
    "Postcode": "SW1E 5JX"
  },
  {
    "Station": "Walthamstow Central",
    "OS X": 537286,
    "OS Y": 188986,
    "Latitude": 51.5830181133671,
    "Longitude": -0.0199405450269344,
    "Zone": 3,
    "Postcode": "E17 7LP"
  },
  {
    "Station": "Walthamstow Queens Road",
    "OS X": 537020,
    "OS Y": 188815,
    "Latitude": 51.5815461914951,
    "Longitude": -0.0238439433319081,
    "Zone": 3,
    "Postcode": "E17 7QZ"
  },
  {
    "Station": "Wandsworth Common",
    "OS X": 527719,
    "OS Y": 173530,
    "Latitude": 51.4463656043586,
    "Longitude": -0.163536980965717,
    "Zone": 3,
    "Postcode": "SW12 8NL"
  },
  {
    "Station": "Wandsworth Road",
    "OS X": 529354,
    "OS Y": 176226,
    "Latitude": 51.4702232022236,
    "Longitude": -0.139037675747108,
    "Zone": 2,
    "Postcode": "SW8 4PA"
  },
  {
    "Station": "Wandsworth Town",
    "OS X": 525985,
    "OS Y": 175119,
    "Latitude": 51.4610340757433,
    "Longitude": -0.187910037730367,
    "Zone": 2,
    "Postcode": "SW18 1SU"
  },
  {
    "Station": "Wanstead",
    "OS X": 540685,
    "OS Y": 188176,
    "Latitude": 51.5749021498173,
    "Longitude": 0.0287604723850641,
    "Zone": 4,
    "Postcode": "E11 2NT"
  },
  {
    "Station": "Wanstead Park",
    "OS X": 540592,
    "OS Y": 185600,
    "Latitude": 51.5517780784731,
    "Longitude": 0.0263899430085046,
    "Zone": 3,
    "Postcode": "E7 0HU"
  },
  {
    "Station": "Wapping",
    "OS X": 535030,
    "OS Y": 180170,
    "Latitude": 51.5043403163738,
    "Longitude": -0.0558608145326272,
    "Zone": 2,
    "Postcode": "E1W 3PA"
  },
  {
    "Station": "Warren Street",
    "OS X": 529253,
    "OS Y": 182272,
    "Latitude": 51.5245799886272,
    "Longitude": -0.138278331644798,
    "Zone": 1,
    "Postcode": "NW1 3AA"
  },
  {
    "Station": "Warwick Avenue",
    "OS X": 526158,
    "OS Y": 182030,
    "Latitude": 51.5231044351319,
    "Longitude": -0.18295329305572,
    "Zone": 2,
    "Postcode": "W9 2PT"
  },
  {
    "Station": "Waterloo",
    "OS X": 531050,
    "OS Y": 179933,
    "Latitude": 51.5031466396974,
    "Longitude": -0.113259251998453,
    "Zone": 1,
    "Postcode": "SE1 7NY"
  },
  {
    "Station": "Welling",
    "OS X": 546096,
    "OS Y": 176073,
    "Latitude": 51.464777088199,
    "Longitude": 0.101775038473133,
    "Zone": 4,
    "Postcode": "DA16 3AT"
  },
  {
    "Station": "Wembley Central",
    "OS X": 518214,
    "OS Y": 185039,
    "Latitude": 51.5518647803027,
    "Longitude": -0.296392327030991,
    "Zone": 4,
    "Postcode": "HA9 6AG"
  },
  {
    "Station": "Wembley Park",
    "OS X": 519373,
    "OS Y": 186341,
    "Latitude": 51.5633224581255,
    "Longitude": -0.279242552649773,
    "Zone": 4,
    "Postcode": "HA9 9AA"
  },
  {
    "Station": "Wembley Stadium",
    "OS X": 518924,
    "OS Y": 185366,
    "Latitude": 51.5546545705647,
    "Longitude": -0.286046446735794,
    "Zone": 4,
    "Postcode": "HA9 8BQ"
  },
  {
    "Station": "West Acton",
    "OS X": 519394,
    "OS Y": 181273,
    "Latitude": 51.5177701502659,
    "Longitude": -0.28065717548937,
    "Zone": 3,
    "Postcode": "W3 6UP"
  },
  {
    "Station": "West Brompton",
    "OS X": 525383,
    "OS Y": 178030,
    "Latitude": 51.4873289147265,
    "Longitude": -0.195538811890396,
    "Zone": 2,
    "Postcode": "SW5 9JX"
  },
  {
    "Station": "West Dulwich",
    "OS X": 532798,
    "OS Y": 173053,
    "Latitude": 51.4409118212972,
    "Longitude": -0.090672676392605,
    "Zone": 3,
    "Postcode": "SE21 8HN"
  },
  {
    "Station": "West Ealing",
    "OS X": 516690,
    "OS Y": 180749,
    "Latitude": 51.5136252052097,
    "Longitude": -0.319782954648735,
    "Zone": 3,
    "Postcode": "W13 0NQ"
  },
  {
    "Station": "West Finchley",
    "OS X": 525507,
    "OS Y": 191601,
    "Latitude": 51.6092627277839,
    "Longitude": -0.188917109550708,
    "Zone": 4,
    "Postcode": "N3 1NT"
  },
  {
    "Station": "West Ham",
    "OS X": 539202,
    "OS Y": 182974,
    "Latitude": 51.5285255193599,
    "Longitude": 0.00531739383062769,
    "Zone": 3,
    "Postcode": "E15 3BN"
  },
  {
    "Station": "West Hampstead",
    "OS X": 525524,
    "OS Y": 184726,
    "Latitude": 51.5474743330508,
    "Longitude": -0.191126585563572,
    "Zone": 2,
    "Postcode": "NW6 2LX"
  },
  {
    "Station": "West Hampstead Thameslink",
    "OS X": 525423,
    "OS Y": 184852,
    "Latitude": 51.5486291226148,
    "Longitude": -0.192537519702221,
    "Zone": 2,
    "Postcode": "NW6 1XJ"
  },
  {
    "Station": "West Harrow",
    "OS X": 514163,
    "OS Y": 187957,
    "Latitude": 51.5789242379876,
    "Longitude": -0.353846697165067,
    "Zone": 5,
    "Postcode": "HA1 4HE"
  },
  {
    "Station": "West India Quay",
    "OS X": 537471,
    "OS Y": 180505,
    "Latitude": 51.5067626576677,
    "Longitude": -0.0205824471509307,
    "Zone": 2,
    "Postcode": "E14 4ED"
  },
  {
    "Station": "West Kensington",
    "OS X": 524635,
    "OS Y": 178321,
    "Latitude": 51.4901093624437,
    "Longitude": -0.206203694687821,
    "Zone": 2,
    "Postcode": "W14 9NL"
  },
  {
    "Station": "West Norwood",
    "OS X": 531956,
    "OS Y": 171955,
    "Latitude": 51.43124111565,
    "Longitude": -0.103189134912662,
    "Zone": 3,
    "Postcode": "SE27 0HS"
  },
  {
    "Station": "West Silvertown",
    "OS X": 540455,
    "OS Y": 180155,
    "Latitude": 51.502884434803,
    "Longitude": 0.0222460466499381,
    "Zone": 3,
    "Postcode": "E16 2AT"
  },
  {
    "Station": "West Sutton",
    "OS X": 525081,
    "OS Y": 164539,
    "Latitude": 51.3661501352022,
    "Longitude": -0.204644548460784,
    "Zone": 5,
    "Postcode": "SM1 2EH"
  },
  {
    "Station": "West Wickham",
    "OS X": 538266,
    "OS Y": 166563,
    "Latitude": 51.3812842012659,
    "Longitude": -0.0145763304220232,
    "Zone": 5,
    "Postcode": "BR4 0PY"
  },
  {
    "Station": "Westbourne Park",
    "OS X": 524920,
    "OS Y": 181764,
    "Latitude": 51.5209888413386,
    "Longitude": -0.200882515158211,
    "Zone": 2,
    "Postcode": "W11 1AB"
  },
  {
    "Station": "Westcombe Park",
    "OS X": 540199,
    "OS Y": 178103,
    "Latitude": 51.4845088959986,
    "Longitude": 0.0177457002429358,
    "Zone": 3,
    "Postcode": "SE3 7EQ"
  },
  {
    "Station": "Westferry",
    "OS X": 537064,
    "OS Y": 180814,
    "Latitude": 51.5096381479109,
    "Longitude": -0.0263231371398518,
    "Zone": 2,
    "Postcode": "E14 8AD"
  },
  {
    "Station": "Westminster",
    "OS X": 530240,
    "OS Y": 179718,
    "Latitude": 51.5014015913501,
    "Longitude": -0.125002079249726,
    "Zone": 1,
    "Postcode": "SW1A 2JR"
  },
  {
    "Station": "White City",
    "OS X": 523296,
    "OS Y": 180750,
    "Latitude": 51.5122324376415,
    "Longitude": -0.22463193144813,
    "Zone": 2,
    "Postcode": "W12 7RH"
  },
  {
    "Station": "White Hart Lane",
    "OS X": 533693,
    "OS Y": 191340,
    "Latitude": 51.6050347708718,
    "Longitude": -0.070870326822947,
    "Zone": 3,
    "Postcode": "N17 7RP"
  },
  {
    "Station": "Whitechapel",
    "OS X": 534738,
    "OS Y": 181859,
    "Latitude": 51.5195877855755,
    "Longitude": -0.0594204851891818,
    "Zone": 2,
    "Postcode": "E1 1BY"
  },
  {
    "Station": "Whitton",
    "OS X": 514220,
    "OS Y": 173568,
    "Latitude": 51.4495881907174,
    "Longitude": -0.3576820608721,
    "Zone": 5,
    "Postcode": "TW2 7LG"
  },
  {
    "Station": "Willesden Junction",
    "OS X": 521905,
    "OS Y": 182942,
    "Latitude": 51.5322339634936,
    "Longitude": -0.243909143297483,
    "Zone": 3,
    "Postcode": "NW10 4RA"
  },
  {
    "Station": "Wimbledon",
    "OS X": 524791,
    "OS Y": 170647,
    "Latitude": 51.4211078449718,
    "Longitude": -0.206662835920936,
    "Zone": 3,
    "Postcode": "SW19 1PS"
  },
  {
    "Station": "Wimbledon Chase",
    "OS X": 524306,
    "OS Y": 169347,
    "Latitude": 51.4095309322704,
    "Longitude": -0.214089769747315,
    "Zone": 3,
    "Postcode": "SW20 8DB"
  },
  {
    "Station": "Wimbledon Park",
    "OS X": 525274,
    "OS Y": 172158,
    "Latitude": 51.4345809526287,
    "Longitude": -0.199186275276999,
    "Zone": 3,
    "Postcode": "SW19 7DZ"
  },
  {
    "Station": "Winchmore Hill",
    "OS X": 531529,
    "OS Y": 194494,
    "Latitude": 51.6338868591581,
    "Longitude": -0.100916933316384,
    "Zone": 4,
    "Postcode": "N21 3NG"
  },
  {
    "Station": "Wood Green",
    "OS X": 531038,
    "OS Y": 190427,
    "Latitude": 51.5974537283121,
    "Longitude": -0.109526589468032,
    "Zone": 3,
    "Postcode": "N22 8HH"
  },
  {
    "Station": "Wood Lane",
    "OS X": 523314,
    "OS Y": 180464,
    "Latitude": 51.5096581948003,
    "Longitude": -0.224472608638623,
    "Zone": 2,
    "Postcode": "W12 7DS"
  },
  {
    "Station": "Wood Street",
    "OS X": 538521,
    "OS Y": 189426,
    "Latitude": 51.5866699440063,
    "Longitude": -0.0019538980132223,
    "Zone": 4,
    "Postcode": "E17 3NZ"
  },
  {
    "Station": "Woodford",
    "OS X": 540952,
    "OS Y": 191778,
    "Latitude": 51.6072018443785,
    "Longitude": 0.0340562023454831,
    "Zone": 4,
    "Postcode": "IG8 7QE"
  },
  {
    "Station": "Woodside Park",
    "OS X": 525725,
    "OS Y": 192564,
    "Latitude": 51.6178683998642,
    "Longitude": -0.185425504725524,
    "Zone": 4,
    "Postcode": "N12 8SE"
  },
  {
    "Station": "Woolwich Arsenal",
    "OS X": 543754,
    "OS Y": 178803,
    "Latitude": 51.489907116548,
    "Longitude": 0.0691939064074983,
    "Zone": 4,
    "Postcode": "SE18 6HX"
  },
  {
    "Station": "Woolwich Dockyard",
    "OS X": 542738,
    "OS Y": 178908,
    "Latitude": 51.4911077947946,
    "Longitude": 0.0546123483136155,
    "Zone": 3,
    "Postcode": "SE18 5JY"
  },
  {
    "Station": "Worcester Park",
    "OS X": 522192,
    "OS Y": 166133,
    "Latitude": 51.3811044872894,
    "Longitude": -0.245575291815635,
    "Zone": 4,
    "Postcode": "KT4 7ND"
  }
]